{"type":"FeatureCollection","features":[{"type":"Feature","properties":{"cc":"GB","name":"United Kingdom","role":"ctx"},"geometry":{"type":"MultiPolygon","coordinates":[[[[-2.433,51.740],[-3.293,51.390],[-3.562,51.413],[-3.890,51.591],[-4.234,51.569],[-4.091,51.659],[-4.386,51.741],[-4.600,51.737],[-4.902,51.626],[-5.124,51.705],[-5.262,51.880],[-5.088,51.995],[-4.383,52.197],[-4.149,52.326],[-3.980,52.541],[-4.078,52.607],[-4.039,52.704],[-4.117,52.820],[-4.101,52.915],[-4.683,52.806],[-4.268,53.144],[-3.764,53.307],[-3.326,53.347],[-3.097,53.260],[-3.165,53.394],[-3.064,53.426],[-2.918,53.305],[-2.749,53.310],[-2.913,53.350],[-3.064,53.512],[-2.925,53.732],[-3.031,53.773],[-3.045,53.843],[-2.899,53.960],[-2.867,54.177],[-3.165,54.127],[-3.569,54.467],[-3.592,54.564],[-3.464,54.773],[-3.267,54.906],[-3.036,54.953],[-3.550,54.947],[-3.957,54.780],[-4.253,54.846],[-4.517,54.758],[-4.818,54.846],[-4.911,54.689],[-5.135,54.857],[-5.172,54.985],[-5.055,54.988],[-4.676,55.501],[-4.891,55.699],[-4.826,55.929],[-4.584,55.938],[-4.844,56.051],[-4.800,56.158],[-4.927,56.028],[-5.214,55.888],[-5.222,56.065],[-4.996,56.233],[-5.383,56.019],[-5.385,55.770],[-5.556,55.389],[-5.646,55.326],[-5.768,55.362],[-5.681,55.623],[-5.504,55.802],[-5.622,55.813],[-5.534,56.250],[-5.188,56.758],[-5.652,56.531],[-5.864,56.561],[-5.968,56.689],[-6.132,56.718],[-5.730,56.853],[-5.861,56.902],[-5.591,57.102],[-5.561,57.232],[-5.794,57.378],[-5.801,57.468],[-5.581,57.546],[-5.744,57.668],[-5.608,57.881],[-5.157,57.881],[-5.413,58.069],[-5.338,58.238],[-5.008,58.262],[-5.090,58.384],[-5.066,58.520],[-4.975,58.580],[-4.715,58.510],[-4.491,58.568],[-4.433,58.512],[-3.053,58.634],[-3.112,58.408],[-3.212,58.321],[-3.990,57.959],[-4.035,57.852],[-3.857,57.818],[-4.134,57.577],[-3.294,57.710],[-2.074,57.702],[-1.867,57.612],[-1.780,57.474],[-2.020,57.258],[-2.260,56.863],[-2.500,56.636],[-2.680,56.514],[-3.309,56.363],[-2.885,56.397],[-2.652,56.318],[-2.674,56.253],[-3.362,56.027],[-3.789,56.095],[-3.607,56.016],[-3.048,55.951],[-2.599,56.027],[-2.147,55.902],[-1.655,55.570],[-1.232,54.703],[-0.671,54.503],[-0.084,54.118],[-0.205,54.021],[0.115,53.609],[-0.270,53.736],[-0.659,53.724],[-0.293,53.692],[0.270,53.335],[0.355,53.159],[0.045,52.905],[0.279,52.808],[0.558,52.966],[1.271,52.924],[1.656,52.753],[1.743,52.578],[1.591,52.119],[1.413,51.994],[1.232,51.971],[1.274,51.845],[0.752,51.729],[0.898,51.689],[0.890,51.571],[0.424,51.465],[0.528,51.484],[0.686,51.386],[0.889,51.359],[1.414,51.363],[1.397,51.182],[1.044,51.047],[0.960,50.925],[0.772,50.933],[0.205,50.763],[-0.203,50.814],[-0.785,50.765],[-1.416,50.896],[-1.334,50.820],[-1.600,50.732],[-2.031,50.725],[-1.962,50.627],[-2.035,50.603],[-2.433,50.599],[-2.999,50.716],[-3.404,50.632],[-3.679,50.239],[-3.793,50.229],[-4.194,50.393],[-4.727,50.290],[-5.009,50.160],[-5.118,50.038],[-5.433,50.104],[-5.655,50.077],[-5.570,50.196],[-5.342,50.246],[-4.893,50.533],[-4.582,50.776],[-4.523,50.977],[-4.296,51.027],[-4.188,51.188],[-3.135,51.205],[-2.433,51.740]]],[[[-0.774,60.800],[-0.825,60.683],[-0.922,60.697],[-0.915,60.810],[-0.774,60.800]]],[[[-1.067,60.502],[-1.165,60.603],[-1.093,60.720],[-1.005,60.716],[-1.067,60.502]]],[[[-1.287,60.467],[-1.052,60.444],[-1.199,60.006],[-1.299,59.878],[-1.355,59.911],[-1.290,60.153],[-1.481,60.173],[-1.663,60.282],[-1.374,60.332],[-1.449,60.468],[-1.571,60.494],[-1.414,60.598],[-1.301,60.607],[-1.287,60.467]]],[[[-1.065,50.690],[-1.306,50.588],[-1.563,50.666],[-1.312,50.773],[-1.065,50.690]]],[[[-2.662,59.230],[-2.603,59.289],[-2.406,59.297],[-2.548,59.231],[-2.662,59.230]]],[[[-2.815,59.161],[-2.861,59.246],[-3.052,59.323],[-2.975,59.347],[-2.719,59.219],[-2.815,59.161]]],[[[-3.070,59.004],[-2.817,58.981],[-2.762,58.955],[-2.826,58.893],[-3.166,58.919],[-3.353,59.018],[-3.248,59.143],[-3.019,59.076],[-3.070,59.004]]],[[[-2.896,58.827],[-2.975,58.756],[-3.035,58.822],[-2.896,58.827]]],[[[-3.158,58.801],[-3.367,58.839],[-3.394,58.909],[-3.271,58.905],[-3.158,58.801]]],[[[-4.154,53.302],[-4.049,53.305],[-4.373,53.134],[-4.553,53.260],[-4.567,53.386],[-4.315,53.417],[-4.154,53.302]]],[[[-5.105,55.448],[-5.331,55.481],[-5.392,55.618],[-5.318,55.709],[-5.185,55.690],[-5.104,55.573],[-5.105,55.448]]],[[[-5.937,54.089],[-6.649,54.058],[-6.646,54.163],[-6.802,54.214],[-7.007,54.406],[-7.202,54.301],[-7.155,54.239],[-7.324,54.133],[-7.606,54.143],[-7.854,54.215],[-8.144,54.453],[-7.754,54.594],[-7.910,54.698],[-7.550,54.767],[-7.376,55.027],[-7.218,55.091],[-7.100,55.048],[-6.947,55.182],[-6.475,55.241],[-6.129,55.217],[-5.716,54.817],[-5.710,54.757],[-5.878,54.641],[-5.582,54.663],[-5.470,54.500],[-5.483,54.441],[-5.671,54.549],[-5.655,54.381],[-5.557,54.370],[-5.606,54.272],[-5.826,54.235],[-5.937,54.089]]],[[[-6.166,57.585],[-6.135,57.314],[-5.668,57.226],[-5.987,57.044],[-6.034,57.201],[-6.322,57.202],[-6.442,57.327],[-6.675,57.362],[-6.761,57.442],[-6.583,57.507],[-6.616,57.562],[-6.378,57.603],[-6.305,57.671],[-6.166,57.585]]],[[[-5.990,55.803],[-6.071,55.893],[-5.911,55.974],[-5.970,55.992],[-5.939,56.045],[-5.725,56.118],[-5.990,55.803]]],[[[-5.777,56.344],[-6.325,56.320],[-6.184,56.356],[-6.138,56.490],[-6.310,56.552],[-6.286,56.611],[-6.102,56.645],[-5.760,56.490],[-5.777,56.344]]],[[[-6.128,55.930],[-6.055,55.695],[-6.253,55.607],[-6.305,55.606],[-6.301,55.780],[-6.495,55.711],[-6.413,55.854],[-6.128,55.930]]],[[[-6.325,58.188],[-6.554,58.092],[-6.403,58.075],[-6.425,58.021],[-6.796,57.827],[-6.956,57.750],[-7.083,57.813],[-6.856,57.923],[-7.057,58.003],[-6.985,58.050],[-7.088,58.095],[-7.028,58.222],[-6.726,58.189],[-6.776,58.301],[-6.237,58.502],[-6.198,58.363],[-6.325,58.188]]],[[[-6.308,56.951],[-6.383,56.970],[-6.432,57.017],[-6.278,57.031],[-6.308,56.951]]],[[[-6.664,56.579],[-6.569,56.661],[-6.483,56.665],[-6.607,56.585],[-6.664,56.579]]],[[[-7.092,57.626],[-7.182,57.533],[-7.515,57.615],[-7.205,57.682],[-7.092,57.626]]],[[[-7.247,57.126],[-7.415,57.192],[-7.410,57.381],[-7.267,57.371],[-7.247,57.126]]],[[[-7.504,56.951],[-7.522,57.006],[-7.398,56.983],[-7.416,56.965],[-7.504,56.951]]]]}},{"type":"Feature","properties":{"cc":"UA","name":"Ukraine","role":"ctx"},"geometry":{"type":"MultiPolygon","coordinates":[[[[38.178,47.080],[37.543,47.074],[37.339,46.916],[37.047,46.876],[36.794,46.714],[36.558,46.762],[36.279,46.658],[35.827,46.624],[35.400,46.381],[35.204,46.169],[35.014,46.106],[35.280,46.279],[35.230,46.440],[35.064,46.267],[34.849,46.189],[34.857,45.987],[35.001,45.733],[34.946,45.728],[34.799,45.790],[34.794,45.892],[34.686,45.976],[34.449,45.965],[34.353,46.061],[34.026,46.106],[33.806,46.208],[33.659,46.219],[33.594,46.096],[33.429,46.057],[33.202,46.175],[32.476,46.083],[32.035,46.260],[31.831,46.281],[31.779,46.324],[31.991,46.364],[32.008,46.429],[31.554,46.554],[32.361,46.474],[32.578,46.615],[32.354,46.564],[32.044,46.642],[31.944,46.784],[31.939,46.981],[31.759,47.212],[31.912,46.926],[31.872,46.649],[31.532,46.664],[31.563,46.777],[31.402,46.628],[30.796,46.552],[30.656,46.266],[30.219,45.866],[29.628,45.722],[29.601,45.6],[29.670,45.540],[29.705,45.259],[29.403,45.419],[28.781,45.309],[28.760,45.234],[28.451,45.292],[28.212,45.450],[28.499,45.517],[28.491,45.665],[28.729,45.852],[28.738,45.937],[28.947,46.049],[29.006,46.176],[28.930,46.362],[28.958,46.458],[29.186,46.523],[29.204,46.379],[29.304,46.466],[29.614,46.398],[29.706,46.448],[29.837,46.350],[30.131,46.423],[29.924,46.538],[29.942,46.723],[29.877,46.828],[29.571,46.964],[29.510,47.128],[29.539,47.270],[29.134,47.489],[29.211,47.775],[29.125,47.964],[28.923,47.951],[28.773,48.119],[28.530,48.150],[28.463,48.090],[28.291,48.238],[28.088,48.257],[27.820,48.416],[27.549,48.477],[27.228,48.371],[26.847,48.387],[26.618,48.259],[26.305,48.203],[26.162,47.992],[25.464,47.910],[24.893,47.717],[24.484,47.947],[24.177,47.906],[23.408,47.989],[23.139,48.087],[22.876,47.947],[22.769,48.109],[22.582,48.134],[22.350,48.256],[22.253,48.407],[22.131,48.405],[22.142,48.568],[22.295,48.685],[22.538,49.072],[22.839,49.038],[22.705,49.171],[22.732,49.295],[22.649,49.539],[22.706,49.606],[23.711,50.377],[23.972,50.410],[24.089,50.530],[23.978,50.785],[24.095,50.872],[23.664,51.310],[23.608,51.610],[23.978,51.591],[24.361,51.867],[25.267,51.937],[25.925,51.913],[27.141,51.752],[27.296,51.597],[27.689,51.572],[27.7,51.477],[27.858,51.592],[28.183,51.607],[28.599,51.542],[28.731,51.433],[29.102,51.627],[29.346,51.382],[30.160,51.477],[30.333,51.325],[30.544,51.265],[30.632,51.355],[30.533,51.596],[30.583,51.688],[30.980,52.046],[31.573,52.108],[32.122,52.050],[32.282,52.114],[32.435,52.307],[32.806,52.252],[33.148,52.340],[33.735,52.344],[33.922,52.251],[34.113,51.979],[34.397,51.780],[34.379,51.716],[34.121,51.679],[34.275,51.340],[34.213,51.255],[34.712,51.172],[35.064,51.203],[35.158,51.060],[35.311,51.043],[35.440,50.727],[35.411,50.539],[35.591,50.368],[35.673,50.345],[35.890,50.437],[36.116,50.408],[36.306,50.280],[36.499,50.280],[36.619,50.209],[36.759,50.291],[37.422,50.411],[37.704,50.109],[38.046,49.920],[38.258,50.052],[38.918,49.824],[39.174,49.855],[39.302,49.742],[39.462,49.728],[39.780,49.572],[40.080,49.576],[40.108,49.251],[39.889,49.064],[39.686,49.007],[39.753,48.914],[40.003,48.822],[39.792,48.807],[39.644,48.591],[39.835,48.542],[39.889,48.360],[39.847,48.302],[39.957,48.268],[39.778,47.887],[39.658,47.841],[38.900,47.855],[38.640,47.665],[38.368,47.609],[38.287,47.559],[38.201,47.320],[38.280,47.259],[38.178,47.080]]],[[[32.150,46.154],[31.563,46.257],[31.508,46.373],[31.638,46.272],[32.150,46.154]]]]}},{"type":"Feature","properties":{"cc":"TR","name":"Turkey","role":"ctx"},"geometry":{"type":"MultiPolygon","coordinates":[[[[41.510,41.517],[41.823,41.432],[41.925,41.495],[42.466,41.439],[42.606,41.578],[42.787,41.563],[43.171,41.287],[43.205,41.199],[43.433,41.155],[43.455,41.064],[43.631,40.929],[43.722,40.719],[43.569,40.482],[43.709,40.166],[43.666,40.126],[43.941,40.023],[44.399,39.995],[44.817,39.650],[44.587,39.768],[44.455,39.666],[44.389,39.422],[44.023,39.377],[44.079,39.218],[44.178,39.144],[44.170,38.934],[44.271,38.836],[44.298,38.386],[44.449,38.334],[44.211,37.908],[44.589,37.710],[44.545,37.658],[44.574,37.435],[44.794,37.290],[44.765,37.142],[44.605,37.176],[44.281,36.978],[44.201,37.051],[44.191,37.249],[44.114,37.301],[43.675,37.227],[43.092,37.367],[42.936,37.324],[42.774,37.371],[42.358,37.108],[42.312,37.229],[42.202,37.297],[42.059,37.206],[41.515,37.089],[40.705,37.097],[40.016,36.826],[39.356,36.681],[38.766,36.693],[38.443,36.862],[38.191,36.901],[37.436,36.643],[37.066,36.652],[36.941,36.758],[36.658,36.802],[36.537,36.457],[36.636,36.233],[36.375,36.171],[36.347,36.003],[36.127,35.831],[35.892,35.916],[35.956,35.998],[35.810,36.309],[36.188,36.658],[36.180,36.807],[36.048,36.910],[35.661,36.724],[35.537,36.597],[35.393,36.575],[34.703,36.816],[34.299,36.604],[33.954,36.295],[33.694,36.181],[32.794,36.035],[32.377,36.183],[32.021,36.535],[31.352,36.801],[30.644,36.865],[30.446,36.269],[30.231,36.307],[29.689,36.156],[29.223,36.324],[29.038,36.693],[28.969,36.715],[28.816,36.675],[28.303,36.811],[28.195,36.686],[28.019,36.634],[28.083,36.751],[27.655,36.674],[27.453,36.712],[28.005,36.831],[28.242,37.029],[27.262,36.976],[27.300,37.126],[27.535,37.163],[27.520,37.249],[27.219,37.389],[27.147,37.603],[27.067,37.657],[27.224,37.725],[27.232,37.978],[26.878,38.054],[26.682,38.198],[26.582,38.149],[26.290,38.277],[26.343,38.370],[26.416,38.367],[26.377,38.624],[26.441,38.641],[26.586,38.557],[26.595,38.418],[26.674,38.335],[26.727,38.418],[26.861,38.372],[27.144,38.451],[26.906,38.481],[26.763,38.709],[27.013,38.886],[26.814,38.960],[26.853,39.115],[26.681,39.292],[26.899,39.549],[26.113,39.467],[26.181,39.990],[26.313,40.025],[26.738,40.400],[27.284,40.455],[27.475,40.319],[27.728,40.328],[27.848,40.381],[27.731,40.481],[27.874,40.512],[27.989,40.489],[27.962,40.369],[29.007,40.389],[29.055,40.424],[28.787,40.534],[29.054,40.649],[29.844,40.738],[29.364,40.809],[29.113,40.937],[29.045,41.007],[29.148,41.221],[29.919,41.150],[30.344,41.196],[30.810,41.084],[31.254,41.107],[31.458,41.320],[32.306,41.729],[33.284,42.004],[34.750,41.956],[35.006,42.063],[35.154,42.027],[35.122,41.891],[35.297,41.728],[35.558,41.634],[35.919,41.713],[36.051,41.682],[36.179,41.426],[36.405,41.274],[36.777,41.363],[37.066,41.184],[38.381,40.924],[39.426,41.106],[39.807,40.982],[40.265,40.961],[41.083,41.261],[41.510,41.517]]],[[[27.987,41.854],[28.197,41.554],[28.346,41.466],[29.057,41.229],[28.956,41.008],[28.780,40.974],[28.172,41.080],[27.925,40.990],[27.499,40.973],[27.258,40.687],[26.772,40.498],[26.202,40.075],[26.253,40.314],[26.792,40.626],[26.105,40.611],[26.038,40.726],[26.331,40.954],[26.330,41.238],[26.624,41.401],[26.581,41.601],[26.320,41.716],[26.327,41.772],[26.511,41.826],[26.615,41.964],[27.244,42.093],[27.534,41.920],[28.014,41.969],[27.987,41.854]]],[[[25.977,40.177],[25.668,40.135],[25.740,40.196],[25.918,40.237],[25.977,40.177]]]]}},{"type":"Feature","properties":{"cc":"CH","name":"Switzerland","role":"ctx"},"geometry":{"type":"Polygon","coordinates":[[[9.182,47.670],[9.625,47.467],[9.487,47.062],[9.845,47.007],[9.877,46.937],[10.133,46.851],[10.349,46.984],[10.454,46.899],[10.397,46.665],[10.430,46.550],[10.087,46.599],[10.038,46.483],[10.128,46.238],[10.041,46.238],[9.939,46.361],[9.528,46.306],[9.427,46.482],[9.304,46.495],[9.251,46.286],[9.003,46.014],[9.046,45.875],[8.953,45.830],[8.778,45.996],[8.818,46.077],[8.641,46.110],[8.458,46.245],[8.422,46.446],[8.095,46.271],[8.125,46.160],[7.993,46.015],[7.787,45.921],[7.538,45.978],[7.055,45.903],[6.772,46.165],[6.816,46.275],[6.758,46.415],[6.428,46.430],[6.234,46.332],[6.272,46.252],[6.199,46.193],[5.971,46.151],[5.970,46.214],[6.095,46.279],[6.123,46.378],[6.060,46.428],[6.160,46.611],[6.410,46.755],[6.456,46.948],[6.666,47.026],[6.952,47.267],[7.000,47.339],[6.900,47.394],[7.053,47.489],[7.265,47.425],[7.615,47.592],[8.454,47.596],[8.567,47.651],[8.403,47.687],[8.572,47.775],[8.881,47.656],[9.182,47.670]]]}},{"type":"Feature","properties":{"cc":"SE","name":"Sweden","role":"eu"},"geometry":{"type":"MultiPolygon","coordinates":[[[[11.470,58.909],[11.642,58.926],[11.798,59.289],[11.680,59.592],[11.834,59.697],[11.932,59.863],[12.169,59.912],[12.486,60.106],[12.588,60.450],[12.294,61.002],[12.706,61.059],[12.880,61.352],[12.155,61.720],[12.303,62.285],[12.114,62.591],[12.108,62.919],[12.218,63.000],[11.999,63.291],[12.212,63.492],[12.175,63.595],[12.792,64.0],[13.203,64.075],[13.960,64.014],[14.141,64.173],[14.077,64.464],[13.650,64.581],[14.479,65.301],[14.634,65.793],[14.543,66.129],[15.040,66.167],[15.483,66.305],[15.422,66.489],[16.403,67.054],[16.434,67.155],[16.127,67.425],[16.193,67.505],[16.457,67.551],[16.585,67.628],[16.783,67.895],[17.324,68.103],[17.916,67.964],[18.176,68.200],[18.162,68.528],[18.378,68.562],[19.969,68.356],[20.240,68.477],[19.968,68.542],[20.240,68.673],[20.348,68.848],[20.116,69.020],[20.622,69.036],[20.895,68.979],[20.918,68.906],[21.997,68.520],[22.854,68.367],[23.097,68.257],[23.182,68.136],[23.318,68.130],[23.638,67.954],[23.501,67.875],[23.541,67.614],[23.454,67.460],[23.733,67.422],[23.774,67.328],[23.626,67.233],[23.641,67.129],[23.988,66.810],[23.865,66.576],[23.701,66.480],[23.700,66.252],[23.907,66.148],[24.155,65.805],[23.691,65.828],[23.102,65.735],[22.746,65.870],[22.538,65.794],[22.400,65.862],[22.287,65.750],[22.254,65.597],[22.086,65.610],[22.147,65.552],[21.920,65.532],[21.95,65.470],[21.879,65.424],[21.565,65.408],[21.523,65.358],[21.609,65.261],[21.410,65.317],[21.573,65.125],[21.138,64.808],[21.519,64.463],[21.465,64.379],[21.018,64.177],[20.762,63.867],[19.913,63.610],[19.722,63.463],[19.502,63.509],[19.494,63.424],[19.354,63.477],[19.034,63.237],[18.816,63.257],[18.858,63.206],[18.606,63.178],[18.530,63.063],[18.312,62.996],[18.502,62.988],[18.463,62.895],[18.170,62.789],[17.879,62.873],[17.974,62.721],[17.903,62.659],[18.037,62.600],[17.646,62.450],[17.410,62.508],[17.378,62.462],[17.429,62.334],[17.633,62.233],[17.510,62.166],[17.374,61.866],[17.465,61.684],[17.196,61.724],[17.215,61.656],[17.130,61.575],[17.202,60.951],[17.278,60.812],[17.250,60.700],[17.593,60.627],[17.661,60.535],[17.955,60.589],[18.162,60.407],[18.557,60.253],[18.535,60.152],[18.787,60.079],[18.990,59.827],[18.970,59.757],[18.578,59.565],[17.964,59.359],[18.132,59.316],[18.508,59.407],[18.617,59.327],[18.414,59.290],[18.285,59.109],[16.978,58.654],[16.214,58.636],[16.788,58.585],[16.923,58.492],[16.651,58.434],[16.769,58.214],[16.700,58.160],[16.694,57.917],[16.596,57.912],[16.555,57.812],[16.652,57.500],[16.475,57.265],[16.527,57.068],[15.996,56.222],[15.826,56.124],[15.626,56.185],[14.713,56.134],[14.754,56.033],[14.558,56.048],[14.215,55.832],[14.202,55.729],[14.341,55.527],[14.173,55.396],[13.806,55.428],[13.321,55.346],[12.885,55.411],[12.973,55.748],[12.471,56.290],[12.801,56.263],[12.656,56.440],[12.857,56.452],[12.919,56.515],[12.883,56.617],[12.717,56.662],[12.421,56.906],[12.151,57.226],[12.053,57.446],[11.961,57.426],[11.878,57.679],[11.734,57.717],[11.703,57.973],[11.549,58.001],[11.449,58.118],[11.431,58.339],[11.248,58.369],[11.166,59.045],[11.295,59.086],[11.470,58.909]]],[[[19.138,57.860],[19.039,57.911],[19.134,57.981],[19.331,57.962],[19.156,57.922],[19.138,57.860]]],[[[19.076,57.835],[18.813,57.706],[18.790,57.483],[18.907,57.398],[18.477,57.163],[18.340,56.978],[18.146,56.920],[18.285,57.083],[18.105,57.271],[18.136,57.556],[18.537,57.830],[18.805,57.833],[18.900,57.915],[19.076,57.835]]],[[[18.570,59.437],[18.572,59.525],[18.698,59.534],[18.623,59.492],[18.570,59.437]]],[[[18.371,59.019],[18.397,59.089],[18.485,59.104],[18.416,59.029],[18.371,59.019]]],[[[16.477,56.240],[16.401,56.310],[16.412,56.568],[16.630,56.876],[16.727,56.902],[16.995,57.317],[17.117,57.319],[16.477,56.240]]]]}},{"type":"Feature","properties":{"cc":"ES","name":"Spain","role":"eu"},"geometry":{"type":"MultiPolygon","coordinates":[[[[4.275,39.830],[3.867,39.958],[3.853,40.063],[4.225,40.032],[4.322,39.897],[4.275,39.830]]],[[[3.145,39.790],[3.395,39.777],[3.461,39.697],[3.244,39.386],[3.072,39.301],[2.799,39.385],[2.700,39.542],[2.499,39.477],[2.370,39.572],[2.784,39.854],[3.158,39.970],[3.198,39.889],[3.145,39.790]]],[[[-1.792,43.372],[-1.410,43.240],[-1.480,43.071],[-1.428,43.036],[-1.300,43.100],[-1.175,43.021],[-0.762,42.939],[-0.586,42.798],[-0.299,42.825],[-0.041,42.689],[0.631,42.689],[0.696,42.845],[1.349,42.690],[1.448,42.437],[1.706,42.503],[1.986,42.358],[2.200,42.420],[2.651,42.340],[2.891,42.456],[3.211,42.431],[3.306,42.288],[3.166,42.256],[3.150,42.162],[3.238,42.082],[3.248,41.944],[3.004,41.767],[2.310,41.466],[2.082,41.287],[1.032,41.062],[0.714,40.822],[0.891,40.722],[0.596,40.614],[-0.327,39.519],[-0.204,39.062],[0.201,38.759],[-0.520,38.317],[-0.814,37.769],[-0.721,37.631],[-1.327,37.561],[-1.640,37.386],[-2.111,36.776],[-2.187,36.745],[-2.452,36.831],[-2.787,36.714],[-3.149,36.758],[-3.431,36.707],[-3.827,36.756],[-4.366,36.718],[-4.674,36.506],[-5.171,36.423],[-5.360,36.134],[-5.443,36.150],[-5.462,36.073],[-5.625,36.025],[-6.040,36.188],[-6.226,36.426],[-6.268,36.596],[-6.384,36.637],[-6.412,36.728],[-6.216,36.913],[-6.396,36.831],[-6.492,36.954],[-6.884,37.194],[-6.863,37.278],[-6.974,37.198],[-7.406,37.179],[-7.503,37.585],[-7.443,37.728],[-7.185,38.006],[-7.022,38.044],[-6.957,38.187],[-7.106,38.181],[-7.343,38.457],[-7.281,38.714],[-7.046,38.907],[-6.997,39.056],[-7.172,39.135],[-7.335,39.465],[-7.535,39.661],[-7.117,39.681],[-6.975,39.798],[-6.896,40.021],[-7.032,40.167],[-6.810,40.343],[-6.835,40.777],[-6.928,41.009],[-6.212,41.532],[-6.308,41.642],[-6.542,41.672],[-6.618,41.942],[-7.147,41.981],[-7.209,41.895],[-7.403,41.833],[-7.920,41.883],[-8.152,41.811],[-8.224,41.895],[-8.129,42.018],[-8.266,42.137],[-8.852,41.926],[-8.887,42.105],[-8.690,42.274],[-8.815,42.285],[-8.730,42.411],[-8.812,42.470],[-8.811,42.640],[-9.033,42.593],[-8.927,42.798],[-9.041,42.814],[-9.235,42.976],[-9.178,43.174],[-8.873,43.334],[-8.665,43.316],[-8.355,43.396],[-8.248,43.439],[-8.256,43.579],[-7.698,43.764],[-7.060,43.553],[-5.846,43.645],[-4.523,43.415],[-3.604,43.519],[-3.045,43.371],[-2.875,43.454],[-2.337,43.328],[-1.792,43.372]]],[[[1.408,38.857],[1.223,38.903],[1.302,39.031],[1.564,39.121],[1.613,39.087],[1.623,39.038],[1.408,38.857]]],[[[1.592,38.701],[1.405,38.670],[1.401,38.711],[1.436,38.768],[1.592,38.701]]]]}},{"type":"Feature","properties":{"cc":"SK","name":"Slovakia","role":"eu"},"geometry":{"type":"Polygon","coordinates":[[[22.538,49.072],[22.295,48.685],[22.142,48.568],[22.111,48.393],[21.721,48.346],[21.451,48.552],[20.490,48.526],[20.333,48.295],[19.950,48.146],[19.625,48.223],[19.466,48.110],[18.791,48.000],[18.724,47.787],[17.635,47.809],[17.317,47.990],[17.085,48.039],[16.865,48.386],[16.985,48.676],[17.135,48.841],[17.758,48.888],[18.085,49.065],[18.160,49.257],[18.596,49.491],[18.938,49.498],[18.968,49.396],[19.149,49.4],[19.441,49.597],[19.630,49.406],[19.773,49.372],[19.756,49.204],[19.802,49.192],[20.057,49.181],[20.163,49.316],[20.362,49.385],[20.616,49.391],[20.868,49.314],[21.079,49.418],[21.639,49.411],[21.890,49.343],[22.020,49.209],[22.538,49.072]]]}},{"type":"Feature","properties":{"cc":"SI","name":"Slovenia","role":"eu"},"geometry":{"type":"Polygon","coordinates":[[[16.516,46.499],[16.258,46.507],[16.227,46.372],[16.066,46.371],[15.635,46.200],[15.592,46.139],[15.666,46.048],[15.652,45.862],[15.277,45.732],[15.353,45.659],[15.283,45.579],[15.339,45.467],[15.242,45.441],[14.793,45.478],[14.568,45.657],[14.369,45.481],[13.992,45.509],[13.878,45.428],[13.615,45.476],[13.577,45.516],[13.874,45.614],[13.583,45.812],[13.600,45.979],[13.487,45.987],[13.632,46.177],[13.378,46.261],[13.7,46.520],[14.549,46.399],[14.893,46.605],[15.439,46.629],[15.766,46.711],[15.957,46.677],[15.976,46.801],[16.093,46.863],[16.283,46.857],[16.516,46.499]]]}},{"type":"Feature","properties":{"cc":"RS","name":"Serbia","role":"ctx"},"geometry":{"type":"Polygon","coordinates":[[[21.360,44.826],[22.026,44.619],[22.093,44.541],[22.497,44.706],[22.734,44.569],[22.502,44.489],[22.530,44.377],[22.705,44.237],[22.626,44.194],[22.597,44.075],[22.420,44.007],[22.369,43.781],[22.554,43.454],[22.976,43.187],[22.706,42.883],[22.466,42.842],[22.436,42.629],[22.532,42.481],[22.422,42.328],[22.239,42.358],[21.562,42.247],[21.518,42.328],[21.609,42.387],[21.752,42.669],[21.390,42.751],[21.403,42.831],[21.057,43.091],[20.844,43.173],[20.800,43.261],[20.623,43.198],[20.624,43.034],[20.475,42.953],[20.468,42.857],[20.344,42.827],[20.268,42.935],[19.614,43.173],[19.218,43.449],[19.194,43.533],[19.254,43.584],[19.451,43.562],[19.495,43.642],[19.245,43.965],[19.549,43.987],[19.583,44.043],[19.118,44.359],[19.348,44.880],[18.995,44.904],[19.085,44.926],[19.062,45.137],[19.136,45.196],[19.4,45.212],[19.004,45.399],[19.064,45.514],[18.917,45.600],[18.947,45.655],[18.839,45.835],[19.066,46.009],[19.278,46.002],[19.530,46.155],[20.210,46.126],[20.709,45.735],[20.775,45.749],[20.794,45.467],[21.490,45.147],[21.352,45.008],[21.532,44.900],[21.360,44.826]]]}},{"type":"Feature","properties":{"cc":"SM","name":"San Marino","role":"ctx"},"geometry":{"type":"Polygon","coordinates":[[[12.485,43.901],[12.396,43.934],[12.503,43.989],[12.485,43.901]]]}},{"type":"Feature","properties":{"cc":"RU","name":"Russia","role":"ctx"},"geometry":{"type":"MultiPolygon","coordinates":[[[[45.0,42.714],[44.850,42.746],[44.771,42.616],[44.644,42.734],[44.505,42.748],[43.825,42.571],[43.738,42.616],[43.782,42.747],[43.089,42.989],[42.991,43.091],[42.760,43.169],[42.566,43.155],[42.419,43.224],[41.580,43.219],[40.648,43.533],[40.150,43.569],[39.978,43.419],[38.717,44.288],[38.181,44.419],[37.851,44.698],[37.495,44.695],[37.204,44.971],[36.650,45.126],[36.619,45.185],[36.941,45.289],[36.720,45.371],[36.793,45.409],[37.213,45.272],[37.647,45.377],[37.671,45.488],[37.609,45.499],[37.612,45.564],[37.840,45.799],[37.933,46.001],[38.014,46.047],[38.079,45.934],[38.183,46.094],[38.492,46.090],[38.077,46.394],[37.913,46.406],[37.766,46.636],[37.967,46.618],[38.229,46.701],[38.500,46.663],[38.438,46.813],[39.270,47.044],[39.293,47.105],[39.195,47.268],[39.023,47.272],[38.928,47.175],[38.668,47.143],[38.552,47.150],[38.761,47.261],[38.577,47.239],[38.214,47.091],[38.201,47.175],[38.280,47.276],[38.201,47.320],[38.287,47.559],[38.640,47.665],[38.822,47.837],[39.735,47.844],[39.778,47.887],[39.957,48.268],[39.847,48.302],[39.889,48.360],[39.835,48.542],[39.644,48.591],[39.792,48.807],[40.003,48.822],[39.753,48.914],[39.686,49.007],[39.889,49.064],[40.108,49.251],[40.080,49.576],[39.780,49.572],[39.462,49.728],[39.302,49.742],[39.174,49.855],[38.918,49.824],[38.258,50.052],[38.046,49.920],[37.704,50.109],[37.422,50.411],[36.759,50.291],[36.619,50.209],[36.499,50.280],[36.306,50.280],[36.116,50.408],[35.890,50.437],[35.673,50.345],[35.591,50.368],[35.411,50.539],[35.440,50.727],[35.311,51.043],[35.158,51.060],[35.064,51.203],[34.712,51.172],[34.213,51.255],[34.275,51.340],[34.121,51.679],[34.379,51.716],[34.397,51.780],[34.113,51.979],[33.922,52.251],[33.735,52.344],[33.148,52.340],[32.806,52.252],[32.435,52.307],[32.282,52.114],[32.122,52.050],[31.763,52.101],[31.577,52.312],[31.615,52.546],[31.519,52.698],[31.564,52.759],[31.258,53.016],[31.417,53.196],[31.668,53.200],[31.849,53.106],[32.141,53.091],[32.704,53.336],[32.706,53.419],[32.469,53.546],[32.450,53.692],[32.200,53.781],[31.754,53.810],[31.825,54.030],[31.403,54.195],[31.184,54.452],[31.074,54.491],[31.152,54.625],[30.798,54.783],[30.829,54.914],[30.977,55.050],[30.810,55.306],[30.900,55.397],[30.906,55.570],[30.233,55.845],[29.937,55.845],[29.482,55.684],[29.353,55.784],[29.396,55.912],[29.283,55.967],[29.031,56.021],[28.794,55.942],[28.563,56.091],[28.284,56.055],[28.147,56.142],[28.202,56.260],[28.169,56.386],[27.881,56.824],[27.639,56.845],[27.828,57.293],[27.354,57.550],[27.542,57.799],[27.778,57.870],[27.673,57.934],[27.502,58.221],[27.531,58.435],[27.434,58.787],[27.757,59.052],[27.897,59.277],[28.151,59.374],[28.012,59.484],[28.063,59.554],[28.013,59.724],[28.058,59.781],[28.334,59.692],[28.518,59.849],[28.947,59.828],[29.147,59.999],[30.122,59.873],[30.172,59.957],[29.721,60.195],[29.069,60.191],[28.643,60.375],[28.491,60.540],[28.622,60.491],[28.650,60.610],[28.512,60.677],[27.797,60.536],[28.407,60.896],[29.251,61.287],[31.186,62.481],[31.536,62.921],[31.180,63.208],[29.991,63.735],[30.210,63.803],[30.526,64.077],[30.487,64.236],[30.108,64.366],[29.986,64.524],[30.120,64.644],[30.110,64.732],[29.783,64.804],[29.604,64.968],[29.622,65.039],[29.826,65.145],[29.810,65.204],[29.608,65.248],[29.714,65.336],[29.728,65.473],[29.819,65.568],[29.715,65.624],[30.095,65.681],[30.087,65.786],[29.903,66.091],[29.066,66.891],[29.243,67.096],[29.941,67.547],[29.988,67.668],[29.343,68.061],[28.685,68.189],[28.470,68.488],[28.772,68.840],[28.414,68.904],[29.118,69.049],[29.388,69.298],[29.994,69.392],[30.163,69.501],[30.159,69.629],[30.860,69.538],[30.922,69.605],[30.869,69.783],[31.546,69.696],[31.788,69.815],[31.997,69.809],[31.984,69.953],[33.007,69.722],[32.994,69.626],[32.915,69.601],[32.176,69.674],[32.091,69.632],[32.330,69.554],[32.377,69.479],[32.999,69.470],[32.978,69.367],[33.454,69.428],[33.327,69.151],[33.141,69.068],[33.435,69.130],[33.684,69.310],[35.009,69.221],[35.289,69.275],[35.857,69.191],[37.730,68.692],[38.430,68.355],[38.831,68.324],[39.568,68.071],[39.823,68.058],[39.746,68.162],[39.809,68.150],[40.380,67.831],[40.966,67.713],[41.133,67.386],[41.133,67.266],[41.358,67.209],[41.275,66.914],[41.188,66.826],[40.521,66.446],[40.103,66.299],[38.653,66.069],[37.900,66.095],[36.983,66.272],[35.513,66.395],[34.824,66.611],[34.482,66.550],[34.396,66.613],[34.451,66.651],[33.150,66.843],[32.847,67.021],[32.930,67.086],[31.895,67.161],[32.500,67.003],[32.463,66.916],[32.862,66.721],[33.180,66.679],[33.217,66.531],[33.655,66.442],[33.360,66.329],[34.112,66.225],[34.691,65.951],[34.786,65.864],[34.776,65.768],[34.615,65.509],[34.406,65.395],[34.803,64.985],[34.832,64.800],[34.952,64.755],[34.858,64.706],[34.869,64.560],[35.035,64.440],[35.432,64.346],[35.647,64.378],[36.146,64.189],[36.364,64.002],[37.442,63.813],[37.967,63.949],[38.070,64.025],[38.062,64.091],[37.953,64.320],[37.740,64.396],[37.183,64.408],[36.578,64.790],[36.534,64.938],[36.785,64.987],[36.882,65.172],[37.140,65.194],[37.528,65.108],[38.009,64.878],[38.412,64.857],[39.567,64.570],[39.758,64.577],[39.848,64.690],[40.057,64.770],[40.444,64.778],[40.281,64.998],[39.798,65.349],[39.749,65.447],[39.816,65.597],[40.327,65.751],[40.691,65.963],[41.475,66.123],[42.210,66.519],[42.602,66.422],[43.233,66.415],[43.653,66.250],[43.541,66.123],[43.843,66.142],[44.104,66.008],[44.145,66.112],[44.097,66.235],[44.488,66.671],[44.429,66.937],[44.291,67.099],[43.855,67.188],[43.782,67.254],[44.225,67.995],[44.204,68.253],[44.169,68.327],[43.333,68.673],[44.048,68.548],[45.0,68.575],[45.0,67.506],[44.902,67.413],[45.0,67.330],[45.0,42.714]]],[[[42.713,66.701],[42.477,66.735],[42.460,66.770],[42.631,66.782],[42.713,66.701]]],[[[33.594,46.096],[33.659,46.219],[33.806,46.208],[34.026,46.106],[34.353,46.061],[34.449,45.965],[34.686,45.976],[34.794,45.892],[34.799,45.790],[35.001,45.733],[35.457,45.316],[35.833,45.401],[36.012,45.371],[36.170,45.453],[36.575,45.393],[36.393,45.065],[35.870,45.005],[35.677,45.102],[35.472,45.098],[35.087,44.802],[34.716,44.807],[34.469,44.721],[34.074,44.423],[33.755,44.398],[33.450,44.553],[33.612,44.907],[33.555,45.097],[33.392,45.187],[33.186,45.194],[32.918,45.348],[32.611,45.328],[32.508,45.403],[33.142,45.749],[33.664,45.947],[33.594,46.096]]],[[[35.848,65.142],[35.842,65.001],[35.778,64.976],[35.528,65.151],[35.729,65.197],[35.848,65.142]]],[[[20.957,55.278],[20.594,54.982],[20.887,54.909],[21.188,54.935],[21.235,55.264],[21.389,55.275],[22.072,55.063],[22.567,55.059],[22.824,54.871],[22.684,54.562],[22.766,54.356],[19.604,54.459],[19.858,54.633],[19.974,54.921],[20.520,54.994],[20.957,55.278]]]]}},{"type":"Feature","properties":{"cc":"RO","name":"Romania","role":"eu"},"geometry":{"type":"Polygon","coordinates":[[[28.317,45.347],[28.760,45.234],[28.781,45.309],[29.403,45.419],[29.705,45.259],[29.557,44.843],[29.048,44.757],[29.095,44.975],[28.980,44.992],[28.891,44.918],[28.926,44.810],[28.807,44.565],[28.888,44.574],[28.645,44.295],[28.658,43.983],[28.585,43.742],[28.221,43.772],[28.05,43.822],[27.884,43.987],[27.738,43.956],[27.425,44.020],[27.086,44.167],[26.215,44.007],[25.818,43.766],[25.497,43.670],[23.224,43.873],[22.919,43.834],[22.868,43.947],[23.028,44.077],[22.687,44.248],[22.494,44.435],[22.554,44.540],[22.720,44.605],[22.497,44.706],[22.093,44.541],[21.909,44.666],[21.360,44.826],[21.532,44.900],[21.352,45.008],[21.490,45.147],[20.794,45.467],[20.775,45.749],[20.709,45.735],[20.241,46.108],[20.508,46.166],[20.613,46.133],[20.760,46.246],[21.121,46.282],[21.264,46.412],[21.320,46.607],[21.497,46.704],[21.661,47.043],[21.995,47.395],[21.999,47.505],[22.290,47.727],[22.608,47.766],[23.139,48.087],[23.408,47.989],[24.177,47.906],[24.578,47.931],[24.893,47.717],[25.464,47.910],[26.162,47.992],[26.305,48.203],[26.713,48.263],[26.980,48.155],[27.614,47.340],[28.071,46.978],[28.239,46.640],[28.244,46.451],[28.099,45.972],[28.159,45.647],[28.074,45.598],[28.317,45.347]]]}},{"type":"Feature","properties":{"cc":"PT","name":"Portugal","role":"eu"},"geometry":{"type":"Polygon","coordinates":[[[-8.682,42.008],[-8.213,42.133],[-8.129,42.018],[-8.224,41.895],[-8.152,41.811],[-7.920,41.883],[-7.403,41.833],[-7.209,41.895],[-7.147,41.981],[-6.618,41.942],[-6.542,41.672],[-6.308,41.642],[-6.212,41.532],[-6.928,41.009],[-6.835,40.777],[-6.810,40.343],[-7.032,40.167],[-6.896,40.021],[-6.975,39.798],[-7.117,39.681],[-7.535,39.661],[-7.335,39.465],[-7.172,39.135],[-6.997,39.056],[-7.046,38.907],[-7.281,38.714],[-7.343,38.457],[-7.106,38.181],[-6.957,38.187],[-7.022,38.044],[-7.185,38.006],[-7.443,37.728],[-7.503,37.585],[-7.406,37.179],[-7.834,37.005],[-8.597,37.121],[-8.997,37.032],[-8.814,37.430],[-8.791,37.732],[-8.878,37.958],[-8.802,38.183],[-8.881,38.446],[-8.668,38.424],[-8.798,38.518],[-9.213,38.448],[-9.250,38.656],[-9.021,38.746],[-8.938,38.998],[-8.791,39.078],[-8.954,39.016],[-9.135,38.742],[-9.474,38.730],[-9.374,39.338],[-9.148,39.542],[-8.837,40.115],[-8.872,40.259],[-8.684,40.752],[-8.655,41.029],[-8.805,41.560],[-8.755,41.698],[-8.887,41.764],[-8.682,42.008]]]}},{"type":"Feature","properties":{"cc":"PL","name":"Poland","role":"eu"},"geometry":{"type":"Polygon","coordinates":[[[23.658,51.448],[23.664,51.310],[24.095,50.872],[23.978,50.785],[24.089,50.530],[23.972,50.410],[23.711,50.377],[22.706,49.606],[22.649,49.539],[22.732,49.295],[22.705,49.171],[22.847,49.081],[22.809,49.020],[22.020,49.209],[21.890,49.343],[21.639,49.411],[21.079,49.418],[20.868,49.314],[20.616,49.391],[20.362,49.385],[20.163,49.316],[20.057,49.181],[19.756,49.204],[19.773,49.372],[19.630,49.406],[19.441,49.597],[19.149,49.4],[18.968,49.396],[18.938,49.498],[18.832,49.510],[18.806,49.613],[18.594,49.757],[18.562,49.879],[18.028,50.035],[17.831,49.983],[17.627,50.116],[17.589,50.157],[17.735,50.230],[17.702,50.307],[17.415,50.254],[16.880,50.427],[16.989,50.236],[16.639,50.102],[16.210,50.423],[16.419,50.573],[16.282,50.655],[16.007,50.611],[15.730,50.739],[15.354,50.811],[15.258,50.958],[14.993,51.014],[14.982,50.886],[14.809,50.858],[15.016,51.252],[14.905,51.463],[14.724,51.523],[14.724,51.661],[14.601,51.832],[14.752,52.081],[14.554,52.359],[14.619,52.528],[14.128,52.878],[14.410,53.199],[14.258,53.729],[14.583,53.639],[14.558,53.823],[14.213,53.870],[14.198,53.919],[16.186,54.290],[16.559,54.553],[17.261,54.729],[18.085,54.835],[18.323,54.838],[18.759,54.684],[18.799,54.633],[18.436,54.744],[18.669,54.430],[18.976,54.348],[19.604,54.459],[22.168,54.359],[22.893,54.390],[23.453,54.143],[23.598,53.599],[23.887,53.027],[23.901,52.703],[23.410,52.516],[23.175,52.286],[23.652,52.040],[23.539,51.618],[23.658,51.448]]]}},{"type":"Feature","properties":{"cc":"NO","name":"Norway","role":"ctx"},"geometry":{"type":"MultiPolygon","coordinates":[[[[21.065,69.041],[20.116,69.020],[20.348,68.848],[20.240,68.673],[19.968,68.542],[20.240,68.477],[19.969,68.356],[18.303,68.555],[18.162,68.528],[18.176,68.200],[17.916,67.964],[17.324,68.103],[16.783,67.895],[16.574,67.619],[16.193,67.505],[16.127,67.425],[16.434,67.155],[16.403,67.054],[15.422,66.489],[15.483,66.305],[15.040,66.167],[14.543,66.129],[14.634,65.793],[14.479,65.301],[13.650,64.581],[14.077,64.464],[14.148,64.260],[14.063,64.095],[13.960,64.014],[13.203,64.075],[12.792,64.0],[12.175,63.595],[12.212,63.492],[11.999,63.291],[12.218,63.000],[12.108,62.919],[12.114,62.591],[12.303,62.285],[12.155,61.720],[12.880,61.352],[12.706,61.059],[12.294,61.002],[12.588,60.450],[12.486,60.106],[12.169,59.912],[11.932,59.863],[11.834,59.697],[11.680,59.592],[11.798,59.289],[11.642,58.926],[11.470,58.909],[11.365,59.104],[10.834,59.183],[10.644,59.389],[10.595,59.764],[10.533,59.695],[10.569,59.587],[10.398,59.519],[10.431,59.279],[10.179,59.009],[9.842,58.958],[9.635,59.117],[9.557,59.112],[9.696,59.009],[9.656,58.971],[9.309,58.856],[9.395,58.805],[8.166,58.145],[7.465,58.020],[7.004,58.024],[6.877,58.150],[6.731,58.068],[6.590,58.097],[6.555,58.123],[6.692,58.224],[6.659,58.262],[6.389,58.267],[6.054,58.375],[5.706,58.523],[5.517,58.726],[5.555,58.975],[5.612,59.012],[6.099,58.870],[6.363,59.000],[6.099,58.951],[5.889,59.097],[5.968,59.186],[5.951,59.299],[6.403,59.560],[5.564,59.291],[5.362,59.166],[5.173,59.162],[5.131,59.226],[5.304,59.642],[5.472,59.713],[5.772,59.660],[6.216,59.818],[5.833,59.794],[5.730,59.863],[6.069,60.083],[6.140,60.233],[6.518,60.407],[6.573,60.360],[6.526,60.152],[6.719,60.418],[6.995,60.511],[6.153,60.346],[5.876,60.070],[5.145,59.638],[5.104,59.731],[5.219,59.978],[5.205,60.087],[5.688,60.123],[5.285,60.205],[5.137,60.445],[5.648,60.687],[5.244,60.569],[5.115,60.635],[5.049,60.707],[5.008,61.038],[6.777,61.142],[6.972,61.055],[7.038,60.952],[7.040,61.091],[7.604,61.210],[7.403,61.222],[7.346,61.300],[7.442,61.434],[7.331,61.372],[7.275,61.180],[7.173,61.165],[6.657,61.206],[6.599,61.289],[6.492,61.154],[6.383,61.133],[6.082,61.167],[5.451,61.102],[5.106,61.187],[5.021,61.250],[5.002,61.433],[5.338,61.485],[4.927,61.710],[4.930,61.878],[5.465,61.896],[6.015,61.787],[6.730,61.869],[6.131,61.852],[5.266,61.935],[5.096,62.026],[5.143,62.159],[5.357,62.151],[5.533,62.310],[5.718,62.378],[5.908,62.416],[6.208,62.352],[6.692,62.468],[6.136,62.407],[6.118,62.447],[6.352,62.611],[6.961,62.626],[7.570,62.548],[7.690,62.585],[7.527,62.610],[7.538,62.672],[8.095,62.731],[6.734,62.720],[6.940,62.930],[7.571,63.099],[8.100,63.090],[8.623,62.846],[8.158,63.161],[8.271,63.286],[8.635,63.342],[8.593,63.426],[8.386,63.445],[8.360,63.498],[8.576,63.601],[8.842,63.645],[9.135,63.593],[9.075,63.500],[9.156,63.459],[9.323,63.570],[9.696,63.624],[10.020,63.390],[10.340,63.469],[10.760,63.461],[10.673,63.558],[10.725,63.625],[11.370,63.804],[11.175,63.898],[11.457,64.002],[11.306,64.048],[11.075,63.988],[10.914,63.921],[11.047,63.845],[10.934,63.770],[10.055,63.512],[9.924,63.521],[9.767,63.699],[9.567,63.706],[10.009,64.083],[10.565,64.418],[11.632,64.813],[11.296,64.754],[11.349,64.905],[11.489,64.975],[12.159,65.178],[12.306,65.085],[12.508,65.099],[12.915,65.339],[12.417,65.184],[12.133,65.279],[12.122,65.362],[12.272,65.568],[12.688,65.902],[13.033,65.956],[12.783,66.100],[13.674,66.179],[14.034,66.297],[13.118,66.230],[13.068,66.430],[13.104,66.539],[13.191,66.537],[13.211,66.640],[13.621,66.794],[13.959,66.794],[13.651,66.907],[13.880,66.964],[14.108,67.119],[15.415,67.202],[15.434,67.246],[14.441,67.271],[14.961,67.574],[15.409,67.474],[15.594,67.348],[15.575,67.443],[15.691,67.521],[15.487,67.514],[15.248,67.602],[15.218,67.655],[15.345,67.734],[15.303,67.765],[14.781,67.674],[14.798,67.809],[15.134,67.972],[15.621,67.948],[15.292,68.036],[16.007,68.228],[16.120,68.027],[16.312,67.881],[16.258,68.001],[16.391,68.091],[16.259,68.144],[16.203,68.316],[16.387,68.389],[16.951,68.354],[17.552,68.426],[17.426,68.481],[16.584,68.466],[16.514,68.532],[16.651,68.625],[17.131,68.693],[17.390,68.799],[17.704,69.100],[18.101,69.156],[18.078,69.325],[18.259,69.470],[18.645,69.321],[18.858,69.314],[18.915,69.335],[18.624,69.434],[18.614,69.490],[18.991,69.561],[19.038,69.660],[19.197,69.747],[19.687,69.804],[19.641,69.424],[19.960,69.824],[20.324,69.945],[20.387,69.867],[20.338,69.616],[20.043,69.355],[20.107,69.341],[20.486,69.542],[20.739,69.520],[20.532,69.692],[20.545,69.851],[20.622,69.913],[21.163,69.889],[21.253,70.003],[21.432,70.013],[21.974,69.834],[21.802,70.066],[21.355,70.233],[21.780,70.229],[22.219,70.309],[22.321,70.264],[22.421,70.337],[22.684,70.374],[22.941,70.304],[23.046,70.101],[23.353,69.983],[23.400,70.019],[23.286,70.104],[23.379,70.247],[23.661,70.399],[24.038,70.485],[24.420,70.702],[24.263,70.826],[24.764,71.008],[25.264,70.843],[25.435,70.911],[25.781,70.816],[25.273,70.552],[25.146,70.324],[24.994,70.218],[24.982,70.143],[25.043,70.109],[25.418,70.235],[25.470,70.340],[26.506,70.912],[26.661,70.939],[26.733,70.853],[26.558,70.669],[26.644,70.636],[26.585,70.410],[26.989,70.511],[27.183,70.744],[27.546,70.804],[27.235,70.947],[27.597,71.091],[28.392,70.975],[28.326,70.825],[27.898,70.677],[28.271,70.667],[28.202,70.576],[28.192,70.248],[28.609,70.759],[28.831,70.863],[29.102,70.860],[29.737,70.646],[30.065,70.702],[30.237,70.622],[30.213,70.543],[30.595,70.523],[30.960,70.343],[30.944,70.274],[30.262,70.124],[28.781,70.145],[28.804,70.092],[29.601,69.976],[29.635,69.780],[29.694,69.744],[30.088,69.717],[30.237,69.862],[30.348,69.834],[30.428,69.722],[30.484,69.794],[30.869,69.783],[30.924,69.651],[30.896,69.561],[30.788,69.528],[30.159,69.629],[30.186,69.542],[30.087,69.432],[29.388,69.298],[29.209,69.097],[28.965,69.021],[28.832,69.118],[28.846,69.176],[29.333,69.472],[29.141,69.671],[28.411,69.822],[27.889,70.061],[27.747,70.064],[27.127,69.906],[26.525,69.915],[26.072,69.691],[25.767,69.282],[25.748,68.990],[25.575,68.887],[25.249,68.821],[25.086,68.639],[24.941,68.593],[23.854,68.805],[23.707,68.713],[23.324,68.648],[22.410,68.719],[22.300,68.855],[21.593,69.273],[21.066,69.214],[21.127,69.080],[21.065,69.041]]],[[[29.766,69.767],[29.835,69.905],[30.055,69.838],[29.956,69.796],[29.766,69.767]]],[[[25.586,71.142],[26.146,71.039],[26.133,70.995],[25.582,70.960],[25.314,71.034],[25.586,71.142]]],[[[23.827,70.527],[23.670,70.597],[23.689,70.722],[23.778,70.747],[24.078,70.650],[24.017,70.567],[23.827,70.527]]],[[[23.633,70.502],[23.270,70.296],[23.100,70.296],[23.090,70.377],[22.917,70.384],[23.022,70.486],[23.546,70.617],[23.633,70.502]]],[[[23.420,70.784],[23.068,70.594],[22.557,70.515],[22.168,70.562],[21.994,70.657],[22.963,70.710],[23.395,70.842],[23.420,70.784]]],[[[20.725,70.066],[20.464,70.076],[20.411,70.154],[20.654,70.230],[20.819,70.205],[20.725,70.066]]],[[[19.599,70.266],[19.910,70.201],[20.088,70.102],[19.780,70.077],[19.599,70.266]]],[[[19.343,70.011],[19.607,70.019],[19.334,69.820],[19.007,69.759],[18.784,69.579],[18.274,69.535],[18.061,69.602],[18.227,69.635],[18.349,69.767],[18.674,69.781],[18.686,69.890],[19.050,70.037],[19.132,70.244],[19.212,70.247],[19.255,70.066],[19.343,70.011]]],[[[17.503,69.596],[18.004,69.504],[18.076,69.395],[17.942,69.328],[17.950,69.198],[17.487,69.196],[17.082,69.013],[16.810,69.070],[16.971,69.137],[17.001,69.361],[17.360,69.381],[17.373,69.438],[17.229,69.477],[17.453,69.530],[17.503,69.596]]],[[[15.772,68.554],[16.059,68.680],[16.150,68.842],[16.328,68.876],[16.547,68.716],[16.519,68.633],[15.975,68.402],[15.763,68.409],[15.437,68.312],[15.279,68.373],[14.628,68.198],[14.257,68.190],[14.257,68.256],[14.585,68.400],[15.095,68.441],[15.412,68.615],[15.564,68.873],[15.443,68.919],[15.483,69.043],[15.892,69.277],[16.129,69.273],[15.992,69.112],[15.811,69.024],[15.905,68.908],[15.927,68.733],[15.772,68.554]]],[[[15.175,68.981],[15.396,68.783],[15.348,68.672],[15.222,68.616],[14.890,68.610],[14.743,68.677],[14.520,68.633],[14.373,68.711],[14.553,68.818],[14.801,68.790],[14.872,68.913],[15.037,68.894],[15.037,69.000],[15.175,68.981]]],[[[13.537,68.249],[14.118,68.246],[13.778,68.104],[13.424,68.082],[13.352,68.009],[13.229,67.995],[13.199,68.087],[13.537,68.249]]],[[[12.824,67.821],[12.957,68.015],[13.122,68.049],[13.074,67.934],[12.824,67.821]]],[[[12.429,65.899],[12.548,66.001],[12.778,65.991],[12.509,65.901],[12.429,65.899]]],[[[12.327,66.036],[12.461,66.185],[12.620,66.177],[12.576,66.071],[12.327,66.036]]],[[[11.901,65.595],[11.778,65.604],[11.765,65.630],[11.875,65.705],[12.003,65.679],[11.901,65.595]]],[[[11.179,64.838],[10.832,64.843],[10.739,64.870],[11.132,64.976],[11.246,64.907],[11.179,64.838]]],[[[8.786,63.703],[8.287,63.687],[8.733,63.801],[8.809,63.771],[8.786,63.703]]],[[[8.102,63.337],[7.888,63.352],[7.804,63.413],[8.073,63.470],[8.136,63.431],[8.102,63.337]]],[[[5.089,60.188],[4.955,60.243],[4.957,60.447],[5.050,60.388],[5.089,60.188]]],[[[4.958,61.084],[4.799,61.082],[4.824,61.178],[4.915,61.199],[4.958,61.084]]],[[[-8.002,71.041],[-9.098,70.854],[-8.343,71.140],[-8.001,71.177],[-7.978,71.116],[-8.002,71.041]]]]}},{"type":"Feature","properties":{"cc":"NL","name":"Netherlands","role":"eu"},"geometry":{"type":"MultiPolygon","coordinates":[[[[5.993,50.750],[5.693,50.774],[5.639,50.843],[5.75,50.950],[5.796,51.153],[5.476,51.285],[5.214,51.278],[5.030,51.469],[4.848,51.403],[4.755,51.491],[4.633,51.421],[4.503,51.474],[4.384,51.427],[4.373,51.356],[4.006,51.443],[3.586,51.453],[3.448,51.540],[3.743,51.596],[4.141,51.455],[4.274,51.471],[4.004,51.595],[4.182,51.610],[3.946,51.810],[4.084,51.994],[4.482,52.309],[4.768,52.941],[4.887,52.908],[5.061,52.960],[5.358,53.096],[5.532,53.268],[6.062,53.407],[6.816,53.441],[6.968,53.327],[7.197,53.282],[7.189,52.999],[7.033,52.651],[6.710,52.617],[6.748,52.464],[6.968,52.444],[7.035,52.380],[6.977,52.205],[6.724,52.080],[6.800,51.967],[6.517,51.853],[6.355,51.824],[6.166,51.880],[5.948,51.802],[6.198,51.45],[6.075,51.224],[6.129,51.147],[5.857,51.030],[6.048,50.904],[5.993,50.750]]],[[[6.734,53.582],[6.668,53.605],[6.800,53.625],[6.734,53.582]]],[[[6.193,53.476],[6.159,53.483],[6.333,53.510],[6.193,53.476]]],[[[5.732,53.442],[5.654,53.466],[5.929,53.458],[5.732,53.442]]],[[[5.325,53.385],[5.190,53.391],[5.582,53.438],[5.325,53.385]]],[[[4.923,53.234],[5.027,53.310],[5.108,53.308],[4.923,53.234]]],[[[4.787,52.999],[4.709,53.036],[4.886,53.183],[4.886,53.070],[4.787,52.999]]],[[[4.226,51.386],[3.902,51.207],[3.580,51.286],[3.432,51.245],[3.350,51.377],[4.226,51.386]]],[[[3.949,51.739],[4.075,51.648],[3.950,51.627],[3.698,51.729],[3.949,51.739]]]]}},{"type":"Feature","properties":{"cc":"ME","name":"Montenegro","role":"ctx"},"geometry":{"type":"Polygon","coordinates":[[[19.191,43.521],[19.614,43.173],[19.944,43.081],[20.347,42.852],[20.192,42.754],[20.054,42.760],[20.070,42.557],[19.939,42.506],[19.788,42.476],[19.727,42.634],[19.654,42.628],[19.280,42.172],[19.361,42.069],[19.342,41.869],[19.186,41.948],[18.894,42.249],[18.632,42.378],[18.645,42.442],[18.517,42.432],[18.438,42.522],[18.545,42.641],[18.466,42.777],[18.460,42.997],[18.623,43.027],[18.674,43.230],[18.851,43.346],[19.026,43.292],[18.950,43.526],[19.191,43.521]]]}},{"type":"Feature","properties":{"cc":"MD","name":"Moldova","role":"ctx"},"geometry":{"type":"Polygon","coordinates":[[[26.618,48.259],[26.847,48.387],[27.228,48.371],[27.549,48.477],[27.820,48.416],[28.088,48.257],[28.291,48.238],[28.463,48.090],[28.530,48.150],[28.773,48.119],[28.923,47.951],[29.125,47.964],[29.211,47.775],[29.134,47.489],[29.539,47.270],[29.510,47.128],[29.571,46.964],[29.877,46.828],[29.942,46.723],[29.924,46.538],[30.131,46.423],[29.837,46.350],[29.706,46.448],[29.614,46.398],[29.304,46.466],[29.204,46.379],[29.186,46.523],[28.958,46.458],[28.930,46.362],[29.006,46.176],[28.947,46.049],[28.738,45.937],[28.729,45.852],[28.491,45.665],[28.499,45.517],[28.212,45.450],[28.074,45.598],[28.159,45.647],[28.099,45.972],[28.244,46.451],[28.239,46.640],[28.071,46.978],[27.614,47.340],[26.980,48.155],[26.787,48.255],[26.618,48.259]]]}},{"type":"Feature","properties":{"cc":"MC","name":"Monaco","role":"ctx"},"geometry":{"type":"Polygon","coordinates":[[[7.438,43.750],[7.395,43.765],[7.436,43.761],[7.438,43.750]]]}},{"type":"Feature","properties":{"cc":"MT","name":"Malta","role":"eu"},"geometry":{"type":"MultiPolygon","coordinates":[[[[14.532,35.820],[14.352,35.872],[14.351,35.978],[14.537,35.886],[14.532,35.820]]],[[[14.320,36.036],[14.194,36.042],[14.180,36.060],[14.320,36.036]]]]}},{"type":"Feature","properties":{"cc":"MK","name":"North Macedonia","role":"ctx"},"geometry":{"type":"Polygon","coordinates":[[[21.389,42.219],[22.239,42.358],[22.582,42.104],[22.796,42.025],[23.003,41.739],[22.929,41.356],[22.783,41.331],[22.724,41.178],[22.603,41.140],[21.993,41.130],[21.575,40.868],[21.404,40.907],[20.964,40.849],[20.933,40.903],[20.740,40.905],[20.488,41.272],[20.448,41.521],[20.516,41.574],[20.553,41.862],[20.725,41.873],[20.778,42.071],[21.059,42.171],[21.286,42.100],[21.389,42.219]]]}},{"type":"Feature","properties":{"cc":"LU","name":"Luxembourg","role":"eu"},"geometry":{"type":"Polygon","coordinates":[[[6.089,50.154],[6.138,49.974],[6.256,49.872],[6.487,49.798],[6.344,49.452],[6.181,49.498],[6.011,49.445],[5.789,49.538],[5.880,49.644],[5.725,49.808],[5.744,49.919],[5.976,50.167],[6.089,50.154]]]}},{"type":"Feature","properties":{"cc":"LT","name":"Lithuania","role":"eu"},"geometry":{"type":"MultiPolygon","coordinates":[[[[22.724,54.405],[22.684,54.562],[22.824,54.871],[22.567,55.059],[22.072,55.063],[21.389,55.275],[21.235,55.264],[21.237,55.455],[21.061,55.813],[21.046,56.070],[21.653,56.314],[22.084,56.406],[22.875,56.396],[23.042,56.324],[23.195,56.367],[24.120,56.264],[24.473,56.284],[24.841,56.411],[25.069,56.200],[25.663,56.104],[26.281,55.750],[26.593,55.667],[26.457,55.342],[26.775,55.273],[26.601,55.130],[26.291,55.139],[26.175,55.003],[25.859,54.919],[25.722,54.717],[25.724,54.564],[25.547,54.331],[25.748,54.259],[25.765,54.179],[25.680,54.140],[25.510,54.159],[25.461,54.292],[25.046,54.133],[24.869,54.145],[24.768,53.974],[24.317,53.892],[24.191,53.950],[23.559,53.919],[23.484,53.939],[23.453,54.143],[23.370,54.200],[22.724,54.405]]],[[[20.899,55.286],[21.014,55.401],[21.114,55.616],[21.031,55.350],[20.899,55.286]]]]}},{"type":"Feature","properties":{"cc":"LI","name":"Liechtenstein","role":"ctx"},"geometry":{"type":"Polygon","coordinates":[[[9.502,47.062],[9.484,47.172],[9.527,47.270],[9.610,47.107],[9.502,47.062]]]}},{"type":"Feature","properties":{"cc":"LV","name":"Latvia","role":"eu"},"geometry":{"type":"Polygon","coordinates":[[[26.542,55.672],[26.281,55.750],[25.663,56.104],[25.069,56.200],[24.841,56.411],[24.473,56.284],[24.120,56.264],[23.195,56.367],[23.042,56.324],[22.875,56.396],[22.084,56.406],[21.653,56.314],[21.046,56.070],[21.031,56.636],[21.071,56.823],[21.350,57.017],[21.459,57.322],[21.728,57.570],[22.554,57.724],[22.648,57.595],[23.136,57.323],[23.287,57.089],[23.647,56.971],[23.931,57.008],[24.382,57.250],[24.322,57.870],[25.111,58.063],[25.228,57.996],[25.340,58.039],[25.991,57.838],[26.462,57.544],[26.966,57.609],[27.469,57.524],[27.538,57.429],[27.828,57.293],[27.639,56.845],[27.848,56.853],[28.103,56.545],[28.202,56.260],[28.147,56.142],[27.896,56.076],[27.642,55.911],[27.576,55.798],[27.052,55.830],[26.822,55.709],[26.542,55.672]]]}},{"type":"Feature","properties":{"cc":"XK","name":"Kosovo","role":"ctx"},"geometry":{"type":"Polygon","coordinates":[[[20.468,42.857],[20.475,42.953],[20.648,43.070],[20.623,43.198],[20.800,43.261],[20.844,43.173],[21.057,43.091],[21.403,42.831],[21.390,42.751],[21.752,42.651],[21.518,42.328],[21.562,42.247],[21.389,42.219],[21.286,42.100],[21.059,42.171],[20.778,42.071],[20.725,41.873],[20.578,41.866],[20.522,42.171],[20.240,42.338],[20.063,42.547],[20.089,42.631],[20.029,42.732],[20.468,42.857]]]}},{"type":"Feature","properties":{"cc":"IT","name":"Italy","role":"eu"},"geometry":{"type":"MultiPolygon","coordinates":[[[[7.055,45.903],[7.538,45.978],[7.787,45.921],[7.993,46.015],[8.125,46.160],[8.095,46.271],[8.422,46.446],[8.458,46.245],[8.641,46.110],[8.818,46.077],[8.778,45.996],[8.953,45.830],[9.023,45.845],[9.003,46.014],[9.251,46.286],[9.304,46.495],[9.427,46.482],[9.528,46.306],[9.939,46.361],[10.080,46.227],[10.145,46.253],[10.038,46.483],[10.087,46.599],[10.430,46.550],[10.397,46.665],[10.452,46.864],[10.993,46.777],[11.244,46.975],[11.775,46.986],[12.169,47.082],[12.154,46.935],[12.388,46.702],[13.7,46.520],[13.378,46.261],[13.632,46.177],[13.487,45.987],[13.600,45.979],[13.583,45.812],[13.874,45.614],[13.719,45.587],[13.783,45.627],[13.628,45.770],[13.465,45.709],[13.206,45.771],[13.030,45.637],[12.432,45.467],[12.536,45.544],[12.491,45.546],[12.274,45.446],[12.225,45.241],[12.523,44.967],[12.384,44.798],[12.278,44.832],[12.248,44.722],[12.396,44.223],[12.691,43.994],[13.564,43.571],[14.010,42.689],[14.540,42.244],[15.168,41.934],[16.164,41.896],[16.151,41.758],[15.913,41.620],[15.900,41.512],[17.103,41.062],[17.474,40.840],[17.954,40.655],[18.460,40.221],[18.485,40.104],[18.393,39.903],[18.343,39.821],[18.077,39.936],[17.865,40.280],[17.395,40.340],[17.179,40.502],[16.928,40.458],[16.669,40.137],[16.521,39.747],[16.597,39.638],[16.824,39.578],[17.114,39.380],[17.174,38.998],[17.098,38.919],[16.951,38.939],[16.616,38.800],[16.558,38.714],[16.545,38.409],[16.282,38.249],[16.056,37.941],[15.724,37.939],[15.645,38.034],[15.643,38.175],[15.822,38.302],[15.926,38.671],[16.196,38.759],[16.209,38.941],[16.107,39.023],[16.023,39.353],[15.692,39.990],[15.585,40.052],[15.294,40.070],[14.950,40.239],[14.947,40.469],[14.765,40.668],[14.339,40.598],[14.460,40.728],[14.308,40.812],[14.044,40.812],[13.733,41.235],[13.246,41.288],[13.088,41.243],[12.849,41.408],[12.630,41.469],[12.075,41.940],[11.807,42.082],[11.637,42.287],[11.296,42.423],[11.103,42.416],[11.184,42.456],[11.167,42.535],[10.708,42.936],[10.514,42.967],[10.520,43.203],[10.320,43.513],[10.245,43.852],[10.047,44.019],[9.730,44.101],[9.289,44.319],[8.765,44.422],[8.551,44.346],[8.004,43.876],[7.493,43.767],[7.482,43.864],[7.677,44.083],[7.637,44.164],[7.318,44.137],[6.900,44.335],[6.842,44.510],[7.030,44.716],[6.992,44.827],[6.738,44.921],[6.634,45.068],[6.692,45.144],[6.842,45.135],[7.078,45.239],[7.153,45.400],[6.789,45.780],[7.055,45.903]],[[12.514,43.952],[12.441,43.982],[12.396,43.934],[12.485,43.901],[12.514,43.952]],[[12.439,41.898],[12.430,41.905],[12.427,41.900],[12.439,41.898]]],[[[15.634,38.267],[15.234,37.784],[15.099,37.458],[15.116,37.334],[15.230,37.244],[15.174,37.209],[15.295,37.055],[15.115,36.839],[15.112,36.687],[14.501,36.798],[14.259,37.046],[13.800,37.135],[12.924,37.570],[12.640,37.594],[12.435,37.819],[12.547,38.052],[12.734,38.183],[12.902,38.034],[13.159,38.190],[13.291,38.191],[13.788,37.981],[14.505,38.045],[14.789,38.166],[15.118,38.152],[15.498,38.290],[15.634,38.267]]],[[[13.893,40.696],[13.871,40.761],[13.962,40.739],[13.960,40.718],[13.893,40.696]]],[[[12.051,36.757],[11.940,36.780],[11.948,36.843],[12.024,36.820],[12.051,36.757]]],[[[10.395,42.858],[10.419,42.713],[10.109,42.785],[10.395,42.858]]],[[[9.682,40.818],[9.805,40.499],[9.642,40.268],[9.706,40.017],[9.562,39.166],[9.056,39.239],[8.966,38.963],[8.881,38.912],[8.648,38.926],[8.418,39.205],[8.399,39.481],[8.451,39.721],[8.540,39.731],[8.547,39.839],[8.407,39.917],[8.471,40.292],[8.189,40.651],[8.224,40.913],[8.363,40.846],[8.571,40.850],[8.821,40.949],[9.228,41.257],[9.615,41.017],[9.553,40.932],[9.682,40.818]]],[[[8.421,38.968],[8.360,39.038],[8.366,39.115],[8.478,39.067],[8.421,38.968]]],[[[8.343,41.101],[8.205,40.997],[8.320,41.121],[8.343,41.101]]]]}},{"type":"Feature","properties":{"cc":"IE","name":"Ireland","role":"eu"},"geometry":{"type":"MultiPolygon","coordinates":[[[[-7.376,55.027],[-7.550,54.767],[-7.910,54.698],[-7.754,54.594],[-8.144,54.453],[-7.854,54.215],[-7.606,54.143],[-7.324,54.133],[-7.155,54.239],[-7.202,54.301],[-7.007,54.406],[-6.802,54.214],[-6.646,54.163],[-6.649,54.058],[-6.175,54.053],[-6.156,54.017],[-6.307,54.011],[-6.347,53.941],[-6.141,53.577],[-6.151,53.366],[-6.027,52.927],[-6.169,52.738],[-6.217,52.543],[-6.463,52.345],[-6.325,52.246],[-6.890,52.159],[-6.965,52.249],[-7.003,52.165],[-7.527,52.098],[-7.624,51.993],[-8.057,51.825],[-8.409,51.888],[-8.335,51.792],[-8.407,51.712],[-9.296,51.498],[-9.835,51.483],[-9.524,51.681],[-9.579,51.689],[-10.120,51.600],[-9.598,51.874],[-10.084,51.770],[-10.341,51.798],[-10.378,51.868],[-9.909,52.122],[-10.390,52.134],[-10.356,52.206],[-10.132,52.282],[-9.772,52.250],[-9.906,52.403],[-9.632,52.546],[-8.783,52.679],[-8.990,52.755],[-9.175,52.634],[-9.561,52.653],[-9.916,52.569],[-9.464,52.823],[-9.393,52.896],[-9.461,52.947],[-9.299,53.097],[-8.930,53.207],[-9.514,53.238],[-9.625,53.334],[-9.875,53.342],[-9.795,53.394],[-10.091,53.412],[-10.054,53.478],[-10.116,53.548],[-9.720,53.604],[-9.909,53.657],[-9.901,53.727],[-9.578,53.805],[-9.578,53.879],[-9.914,53.863],[-9.856,54.095],[-9.934,54.075],[-9.977,54.187],[-10.092,54.155],[-10.056,54.257],[-9.562,54.308],[-9.315,54.298],[-9.145,54.209],[-9.002,54.287],[-8.545,54.241],[-8.623,54.346],[-8.230,54.507],[-8.133,54.640],[-8.456,54.609],[-8.763,54.681],[-8.377,54.889],[-8.393,55.020],[-8.274,55.146],[-7.750,55.185],[-7.762,55.248],[-7.667,55.256],[-7.556,55.122],[-7.658,54.970],[-7.478,55.046],[-7.517,55.247],[-7.301,55.298],[-7.365,55.360],[-6.961,55.237],[-7.376,55.027]]],[[[-9.952,53.884],[-10.062,53.959],[-10.265,53.977],[-9.996,54.003],[-9.952,53.884]]]]}},{"type":"Feature","properties":{"cc":"IS","name":"Iceland","role":"ctx"},"geometry":{"type":"Polygon","coordinates":[[[-15.428,66.224],[-14.856,66.381],[-14.595,66.381],[-14.912,66.284],[-15.116,66.102],[-14.698,66.020],[-14.688,65.896],[-14.827,65.764],[-14.391,65.787],[-14.318,65.684],[-14.473,65.575],[-14.166,65.642],[-13.617,65.519],[-13.667,65.398],[-13.804,65.354],[-13.641,65.275],[-13.754,65.192],[-13.580,65.143],[-13.569,65.068],[-13.854,64.992],[-13.852,64.862],[-14.044,64.741],[-14.385,64.745],[-14.375,64.677],[-14.465,64.635],[-14.432,64.538],[-14.628,64.415],[-15.021,64.295],[-15.832,64.176],[-16.640,63.865],[-17.815,63.712],[-17.946,63.535],[-18.252,63.529],[-18.222,63.473],[-18.653,63.406],[-20.198,63.555],[-20.494,63.687],[-20.469,63.748],[-20.363,63.764],[-20.413,63.805],[-20.650,63.737],[-21.136,63.887],[-21.105,63.939],[-21.448,63.858],[-22.652,63.827],[-22.742,64.019],[-22.701,64.083],[-22.510,63.991],[-22.187,64.039],[-21.865,64.180],[-21.668,64.349],[-21.463,64.379],[-22.053,64.313],[-21.901,64.391],[-22.000,64.413],[-21.950,64.514],[-21.590,64.626],[-22.106,64.533],[-22.324,64.624],[-22.247,64.726],[-22.467,64.794],[-23.346,64.824],[-23.818,64.739],[-24.026,64.863],[-22.788,65.046],[-21.892,65.048],[-21.763,65.173],[-22.099,65.126],[-22.509,65.196],[-21.844,65.447],[-22.902,65.580],[-23.899,65.407],[-24.475,65.525],[-24.248,65.614],[-23.856,65.538],[-24.010,65.616],[-24.092,65.776],[-23.615,65.679],[-23.285,65.75],[-23.704,65.781],[-23.832,65.849],[-23.524,65.880],[-23.777,66.017],[-23.737,66.069],[-23.434,66.024],[-23.598,66.108],[-23.452,66.181],[-23.062,66.086],[-23.018,65.982],[-22.659,66.025],[-22.616,65.867],[-22.441,65.908],[-22.445,66.070],[-22.947,66.212],[-22.484,66.266],[-22.686,66.337],[-23.116,66.338],[-22.889,66.440],[-22.426,66.430],[-21.406,66.025],[-21.516,65.967],[-21.308,65.895],[-21.374,65.741],[-21.658,65.723],[-21.364,65.578],[-21.432,65.474],[-21.229,65.420],[-21.129,65.266],[-20.939,65.565],[-20.804,65.636],[-20.678,65.663],[-20.454,65.571],[-20.356,65.719],[-20.356,66.033],[-20.207,66.100],[-19.489,65.768],[-19.382,66.075],[-18.845,66.183],[-18.276,65.884],[-18.141,65.734],[-18.099,65.830],[-18.315,66.093],[-18.297,66.157],[-17.906,66.143],[-17.550,65.964],[-17.153,66.202],[-16.838,66.125],[-16.485,66.195],[-16.428,66.278],[-16.540,66.446],[-16.249,66.522],[-15.985,66.514],[-15.713,66.358],[-15.702,66.285],[-15.428,66.224]]]}},{"type":"Feature","properties":{"cc":"HU","name":"Hungary","role":"eu"},"geometry":{"type":"Polygon","coordinates":[[[22.227,48.413],[22.350,48.256],[22.769,48.109],[22.876,47.947],[22.608,47.766],[22.290,47.727],[22.037,47.536],[21.995,47.395],[21.494,46.789],[21.497,46.704],[21.294,46.572],[21.264,46.412],[21.039,46.242],[20.760,46.246],[20.613,46.133],[19.613,46.169],[19.278,46.002],[19.087,46.016],[18.927,45.931],[18.666,45.907],[18.437,45.767],[17.807,45.790],[17.310,45.996],[16.871,46.339],[16.516,46.499],[16.283,46.857],[16.093,46.863],[16.252,46.971],[16.453,47.006],[16.492,47.122],[16.416,47.223],[16.442,47.399],[16.623,47.447],[16.676,47.536],[16.639,47.608],[16.421,47.674],[16.590,47.750],[16.785,47.678],[17.066,47.707],[17.030,47.837],[17.147,48.005],[17.317,47.990],[17.761,47.770],[18.724,47.787],[18.791,48.000],[19.466,48.110],[19.625,48.223],[19.950,48.146],[20.333,48.295],[20.490,48.526],[21.451,48.552],[21.766,48.338],[22.227,48.413]]]}},{"type":"Feature","properties":{"cc":"GR","name":"Greece","role":"eu"},"geometry":{"type":"MultiPolygon","coordinates":[[[[27.770,35.908],[27.715,35.957],[27.757,36.069],[27.716,36.171],[27.914,36.345],[28.231,36.433],[28.067,36.129],[28.087,36.065],[27.770,35.908]]],[[[27.838,36.537],[27.785,36.607],[27.862,36.641],[27.869,36.582],[27.838,36.537]]],[[[26.918,36.725],[27.214,36.898],[27.352,36.868],[27.150,36.777],[26.918,36.725]]],[[[27.137,35.409],[27.070,35.597],[27.223,35.820],[27.157,35.629],[27.233,35.478],[27.137,35.409]]],[[[26.743,37.809],[27.039,37.770],[27.055,37.709],[26.844,37.644],[26.581,37.723],[26.743,37.809]]],[[[26.919,36.945],[26.937,37.024],[26.888,37.087],[27.040,37.001],[26.919,36.945]]],[[[26.410,41.696],[26.581,41.601],[26.624,41.401],[26.330,41.238],[26.354,40.997],[26.109,40.749],[25.104,40.994],[24.792,40.857],[24.477,40.947],[24.082,40.724],[23.762,40.747],[23.743,40.677],[23.878,40.544],[23.831,40.481],[23.866,40.418],[24.212,40.327],[24.343,40.147],[23.913,40.358],[23.727,40.329],[23.967,40.114],[24.000,40.024],[23.947,39.965],[23.664,40.223],[23.426,40.263],[23.386,40.221],[23.433,40.115],[23.674,39.958],[23.395,39.989],[23.312,40.216],[22.896,40.399],[22.851,40.490],[22.922,40.590],[22.629,40.495],[22.592,40.036],[22.978,39.563],[23.233,39.358],[23.327,39.174],[23.154,39.101],[23.161,39.257],[22.921,39.306],[22.838,39.258],[22.886,39.169],[22.965,39.030],[23.066,39.037],[22.802,38.901],[22.569,38.867],[23.252,38.661],[23.368,38.525],[23.569,38.489],[23.683,38.352],[23.966,38.275],[24.055,37.709],[23.971,37.676],[23.501,38.034],[23.036,37.878],[23.147,37.795],[23.197,37.620],[23.396,37.579],[23.489,37.440],[23.161,37.333],[23.015,37.481],[22.775,37.585],[22.725,37.542],[23.060,36.853],[23.041,36.644],[23.160,36.448],[22.982,36.528],[22.717,36.793],[22.608,36.779],[22.489,36.568],[22.489,36.446],[22.427,36.475],[22.374,36.513],[22.375,36.701],[22.080,37.028],[21.955,36.990],[21.892,36.737],[21.738,36.863],[21.582,37.080],[21.678,37.387],[21.571,37.541],[21.329,37.669],[21.288,37.774],[21.124,37.891],[21.308,38.027],[21.403,38.196],[21.658,38.175],[21.824,38.328],[21.953,38.321],[22.920,37.958],[22.893,38.050],[23.122,38.073],[23.183,38.133],[22.421,38.438],[22.319,38.356],[21.965,38.412],[21.472,38.321],[21.331,38.487],[21.303,38.373],[21.182,38.345],[20.992,38.654],[20.776,38.807],[20.768,38.874],[20.777,38.927],[20.893,38.941],[21.111,38.896],[21.118,39.029],[20.779,39.008],[20.300,39.327],[20.191,39.545],[20.001,39.709],[20.248,39.678],[20.306,39.796],[20.382,39.802],[20.311,39.979],[20.657,40.117],[20.806,40.445],[20.950,40.494],[21.030,40.622],[20.964,40.849],[21.404,40.907],[21.575,40.868],[21.993,41.130],[22.493,41.118],[22.724,41.178],[22.783,41.331],[23.635,41.386],[24.011,41.460],[24.056,41.527],[24.518,41.552],[24.773,41.356],[24.993,41.364],[25.251,41.243],[25.923,41.311],[26.135,41.385],[26.066,41.673],[26.107,41.725],[26.410,41.696]]],[[[26.347,39.383],[26.578,39.109],[26.583,39.031],[26.488,39.074],[26.547,38.994],[26.160,39.025],[26.107,39.081],[26.273,39.197],[26.175,39.194],[26.072,39.095],[25.844,39.200],[25.909,39.287],[26.088,39.304],[26.165,39.373],[26.347,39.383]]],[[[26.460,36.585],[26.331,36.511],[26.269,36.595],[26.337,36.580],[26.370,36.638],[26.460,36.585]]],[[[25.982,37.525],[26.086,37.634],[26.351,37.674],[26.204,37.568],[25.982,37.525]]],[[[23.920,35.528],[24.166,35.595],[24.197,35.537],[24.108,35.495],[24.255,35.468],[24.274,35.385],[24.354,35.359],[24.721,35.424],[25.475,35.306],[25.730,35.348],[25.791,35.122],[26.167,35.215],[26.320,35.315],[26.244,35.044],[26.165,35.018],[24.799,34.934],[24.708,35.089],[23.883,35.246],[23.638,35.235],[23.561,35.295],[23.569,35.534],[23.672,35.513],[23.736,35.655],[23.793,35.556],[23.920,35.528]]],[[[25.998,38.161],[25.874,38.269],[25.991,38.353],[25.846,38.574],[26.012,38.601],[26.160,38.540],[26.157,38.302],[25.998,38.161]]],[[[25.771,36.782],[26.000,36.937],[26.064,36.902],[25.859,36.790],[25.771,36.782]]],[[[25.572,40.400],[25.448,40.482],[25.568,40.515],[25.685,40.426],[25.572,40.400]]],[[[25.456,36.929],[25.361,37.070],[25.564,37.185],[25.584,37.039],[25.456,36.929]]],[[[25.482,36.392],[25.370,36.358],[25.408,36.473],[25.482,36.392]]],[[[25.307,37.412],[25.348,37.509],[25.462,37.471],[25.402,37.419],[25.307,37.412]]],[[[25.449,40.034],[25.357,39.808],[25.263,39.822],[25.249,39.894],[25.185,39.829],[25.062,39.852],[25.058,39.999],[25.285,39.956],[25.449,40.034]]],[[[25.364,36.658],[25.259,36.758],[25.295,36.789],[25.406,36.717],[25.364,36.658]]],[[[25.199,36.991],[25.105,37.034],[25.146,37.107],[25.275,37.137],[25.199,36.991]]],[[[25.218,37.535],[25.156,37.545],[24.996,37.676],[25.225,37.630],[25.218,37.535]]],[[[24.962,37.692],[24.714,37.898],[24.700,37.961],[24.790,37.990],[24.956,37.904],[24.962,37.692]]],[[[24.937,37.389],[24.896,37.406],[24.906,37.508],[24.942,37.493],[24.937,37.389]]],[[[24.645,40.579],[24.516,40.687],[24.623,40.792],[24.719,40.786],[24.774,40.615],[24.645,40.579]]],[[[24.702,36.917],[24.670,36.998],[24.716,37.023],[24.763,36.949],[24.702,36.917]]],[[[24.569,38.784],[24.461,38.888],[24.485,38.980],[24.674,38.809],[24.569,38.784]]],[[[23.471,38.850],[23.878,38.686],[24.099,38.670],[24.199,38.541],[24.275,38.220],[24.563,38.147],[24.578,38.020],[24.502,37.969],[24.359,38.018],[24.212,38.117],[24.040,38.389],[23.650,38.443],[23.617,38.552],[23.252,38.801],[22.870,38.870],[23.312,39.034],[23.471,38.850]]],[[[24.535,37.167],[24.424,37.131],[24.483,37.210],[24.535,37.167]]],[[[24.535,36.763],[24.530,36.683],[24.325,36.655],[24.357,36.744],[24.535,36.763]]],[[[24.378,37.314],[24.369,37.419],[24.431,37.475],[24.481,37.408],[24.378,37.314]]],[[[24.288,37.528],[24.320,37.677],[24.379,37.682],[24.400,37.649],[24.288,37.528]]],[[[23.841,39.146],[23.888,39.226],[23.970,39.267],[23.939,39.200],[23.841,39.146]]],[[[23.779,39.114],[23.666,39.095],[23.593,39.208],[23.779,39.114]]],[[[23.511,37.901],[23.435,37.911],[23.419,37.931],[23.515,37.986],[23.511,37.901]]],[[[23.042,36.146],[22.910,36.220],[22.950,36.383],[23.097,36.246],[23.042,36.146]]],[[[20.993,37.708],[20.909,37.732],[20.818,37.664],[20.619,37.855],[20.691,37.929],[20.993,37.708]]],[[[20.624,38.267],[20.788,38.142],[20.761,38.070],[20.523,38.106],[20.452,38.234],[20.352,38.179],[20.408,38.336],[20.519,38.332],[20.563,38.474],[20.624,38.267]]],[[[20.758,38.329],[20.646,38.414],[20.623,38.480],[20.701,38.451],[20.758,38.329]]],[[[20.714,38.638],[20.554,38.582],[20.557,38.661],[20.694,38.844],[20.714,38.638]]],[[[20.099,39.376],[19.883,39.461],[19.646,39.767],[19.838,39.820],[19.926,39.773],[19.846,39.668],[19.955,39.470],[20.099,39.376]]]]}},{"type":"Feature","properties":{"cc":"DE","name":"Germany","role":"eu"},"geometry":{"type":"MultiPolygon","coordinates":[[[[9.524,47.524],[9.182,47.670],[8.881,47.656],[8.572,47.775],[8.403,47.687],[8.570,47.637],[8.430,47.592],[7.565,47.606],[7.538,47.773],[7.616,48.156],[7.837,48.636],[8.140,48.886],[8.134,48.973],[7.610,49.061],[7.450,49.152],[7.036,49.112],[6.891,49.207],[6.735,49.160],[6.534,49.394],[6.344,49.452],[6.487,49.798],[6.256,49.872],[6.109,50.034],[6.175,50.232],[6.364,50.316],[6.340,50.451],[6.178,50.522],[6.235,50.596],[5.993,50.750],[6.048,50.904],[5.857,51.030],[6.129,51.147],[6.075,51.224],[6.198,51.45],[5.948,51.802],[6.166,51.880],[6.355,51.824],[6.741,51.910],[6.802,51.980],[6.724,52.080],[7.019,52.266],[7.001,52.418],[6.748,52.464],[6.691,52.530],[6.748,52.634],[7.013,52.633],[7.179,52.966],[7.197,53.282],[7.053,53.375],[7.107,53.556],[7.285,53.681],[8.009,53.690],[8.167,53.543],[8.108,53.467],[8.245,53.445],[8.333,53.606],[8.492,53.514],[8.495,53.394],[8.528,53.781],[8.618,53.875],[9.205,53.855],[9.585,53.600],[9.783,53.554],[9.631,53.600],[9.312,53.859],[8.978,53.926],[8.903,54.000],[8.906,54.260],[8.644,54.294],[8.648,54.397],[8.951,54.467],[8.957,54.538],[8.682,54.791],[8.670,54.903],[9.254,54.808],[9.615,54.855],[9.892,54.780],[10.022,54.673],[10.028,54.581],[9.868,54.472],[10.143,54.488],[10.212,54.408],[10.360,54.438],[10.731,54.316],[11.013,54.379],[11.064,54.280],[11.008,54.181],[10.810,54.075],[10.917,53.995],[11.399,53.944],[11.796,54.145],[12.111,54.168],[12.575,54.467],[13.028,54.411],[13.147,54.282],[13.448,54.140],[13.724,54.153],[13.865,53.853],[14.258,53.729],[14.410,53.199],[14.128,52.878],[14.619,52.528],[14.554,52.359],[14.752,52.081],[14.601,51.832],[14.724,51.661],[14.724,51.523],[14.935,51.435],[15.016,51.252],[14.963,51.095],[14.766,50.818],[14.613,50.855],[14.545,50.993],[14.319,51.037],[14.255,51.001],[14.369,50.898],[13.556,50.704],[13.436,50.601],[13.016,50.490],[12.942,50.406],[12.549,50.393],[12.277,50.181],[12.134,50.310],[12.089,50.268],[12.207,50.097],[12.512,49.895],[12.390,49.739],[12.632,49.461],[13.288,49.097],[13.401,48.977],[13.547,48.959],[13.769,48.815],[13.814,48.766],[13.785,48.587],[13.675,48.523],[13.486,48.581],[13.374,48.361],[12.760,48.106],[12.953,47.890],[12.897,47.721],[13.054,47.655],[13.014,47.478],[12.809,47.542],[12.771,47.639],[12.685,47.669],[12.482,47.637],[12.209,47.718],[12.185,47.619],[11.716,47.583],[11.041,47.393],[10.873,47.520],[10.439,47.551],[10.369,47.366],[10.183,47.278],[10.200,47.363],[10.066,47.393],[9.971,47.505],[9.748,47.575],[9.524,47.524]]],[[[13.827,54.127],[14.213,53.870],[13.925,53.879],[13.827,54.127]]],[[[13.734,54.315],[13.482,54.337],[13.364,54.245],[13.162,54.364],[13.176,54.544],[13.239,54.638],[13.422,54.699],[13.657,54.559],[13.580,54.463],[13.734,54.315]]],[[[11.282,54.417],[11.011,54.466],[11.043,54.515],[11.233,54.501],[11.282,54.417]]],[[[8.284,54.767],[8.295,54.908],[8.405,55.058],[8.451,55.055],[8.379,54.899],[8.629,54.891],[8.347,54.847],[8.284,54.767]]],[[[8.548,54.688],[8.453,54.691],[8.400,54.714],[8.573,54.748],[8.548,54.688]]]]}},{"type":"Feature","properties":{"cc":"FR","name":"France","role":"eu"},"geometry":{"type":"MultiPolygon","coordinates":[[[[9.454,42.658],[9.526,42.552],[9.550,42.129],[9.400,41.926],[9.374,41.678],[9.186,41.384],[8.807,41.588],[8.886,41.700],[8.717,41.761],[8.740,41.925],[8.621,41.930],[8.700,42.095],[8.587,42.160],[8.566,42.218],[8.675,42.284],[8.565,42.357],[8.814,42.607],[9.137,42.732],[9.313,42.713],[9.363,43.017],[9.463,42.981],[9.454,42.658]]],[[[7.615,47.592],[7.343,47.433],[7.053,47.489],[6.900,47.394],[7.000,47.322],[6.666,47.026],[6.456,46.948],[6.410,46.755],[6.160,46.611],[6.067,46.458],[6.123,46.378],[6.095,46.279],[5.970,46.214],[6.006,46.142],[6.199,46.193],[6.272,46.252],[6.234,46.332],[6.428,46.430],[6.776,46.406],[6.816,46.275],[6.772,46.165],[7.021,45.925],[6.804,45.814],[6.790,45.740],[7.153,45.400],[7.078,45.239],[6.842,45.135],[6.692,45.144],[6.634,45.068],[6.738,44.921],[6.992,44.827],[7.030,44.716],[6.842,44.510],[6.900,44.335],[7.318,44.137],[7.637,44.164],[7.677,44.083],[7.482,43.864],[7.493,43.767],[7.181,43.659],[6.716,43.373],[6.570,43.199],[6.115,43.072],[5.809,43.097],[5.406,43.228],[5.320,43.344],[5.073,43.366],[5.059,43.444],[4.712,43.373],[4.224,43.479],[4.052,43.593],[3.910,43.563],[3.258,43.193],[3.051,42.915],[3.090,42.590],[3.211,42.431],[2.891,42.456],[2.651,42.340],[2.200,42.420],[2.032,42.353],[1.706,42.503],[1.709,42.604],[1.501,42.642],[1.428,42.595],[1.349,42.690],[0.764,42.838],[0.669,42.835],[0.631,42.689],[-0.041,42.689],[-0.299,42.825],[-0.586,42.798],[-0.762,42.939],[-1.175,43.021],[-1.300,43.100],[-1.460,43.051],[-1.410,43.240],[-1.712,43.307],[-1.794,43.407],[-1.631,43.438],[-1.484,43.563],[-1.245,44.559],[-1.076,44.689],[-1.152,44.764],[-1.245,44.666],[-1.081,45.532],[-0.826,45.380],[-0.691,45.093],[-0.548,45.000],[-0.641,45.090],[-0.790,45.468],[-1.195,45.714],[-1.209,45.770],[-1.031,45.741],[-1.146,46.311],[-1.786,46.514],[-2.059,46.810],[-2.090,46.920],[-2.018,47.037],[-2.197,47.162],[-2.027,47.273],[-1.742,47.215],[-1.975,47.310],[-2.503,47.312],[-2.530,47.381],[-2.427,47.470],[-2.770,47.513],[-2.733,47.601],[-2.787,47.625],[-2.964,47.601],[-3.158,47.694],[-3.900,47.837],[-4.312,47.822],[-4.427,47.968],[-4.678,48.039],[-4.329,48.169],[-4.577,48.290],[-4.241,48.303],[-4.393,48.367],[-4.719,48.363],[-4.762,48.450],[-4.720,48.539],[-4.531,48.619],[-3.714,48.710],[-3.231,48.840],[-3.003,48.790],[-2.692,48.536],[-2.446,48.648],[-2.079,48.645],[-2.003,48.582],[-1.905,48.697],[-1.824,48.630],[-1.376,48.652],[-1.565,48.805],[-1.583,49.202],[-1.813,49.490],[-1.856,49.683],[-1.258,49.680],[-1.232,49.494],[-1.138,49.387],[-0.163,49.296],[0.416,49.448],[0.129,49.508],[0.186,49.703],[1.245,49.998],[1.592,50.252],[1.551,50.293],[1.579,50.739],[1.672,50.885],[1.912,50.990],[2.524,51.097],[2.596,50.875],[2.759,50.750],[2.839,50.711],[3.106,50.779],[3.234,50.662],[3.273,50.531],[3.595,50.477],[3.689,50.306],[3.949,50.335],[4.174,50.246],[4.176,49.960],[4.545,49.960],[4.818,50.153],[4.860,50.135],[4.790,49.959],[4.867,49.788],[5.278,49.677],[5.507,49.510],[5.789,49.538],[6.011,49.445],[6.242,49.494],[6.534,49.394],[6.735,49.160],[6.891,49.207],[7.036,49.112],[7.450,49.152],[7.610,49.061],[8.134,48.973],[8.140,48.886],[7.837,48.636],[7.616,48.156],[7.529,47.673],[7.615,47.592]]],[[[-1.213,45.816],[-1.368,45.967],[-1.388,46.050],[-1.178,45.904],[-1.213,45.816]]]]}},{"type":"Feature","properties":{"cc":"FI","name":"Finland","role":"eu"},"geometry":{"type":"MultiPolygon","coordinates":[[[[24.155,65.805],[23.907,66.148],[23.700,66.252],[23.701,66.480],[23.865,66.576],[23.988,66.810],[23.641,67.129],[23.626,67.233],[23.774,67.328],[23.733,67.422],[23.454,67.460],[23.541,67.614],[23.501,67.875],[23.638,67.954],[23.318,68.130],[23.182,68.136],[23.097,68.257],[22.854,68.367],[21.997,68.520],[20.918,68.906],[20.895,68.979],[20.622,69.036],[21.065,69.041],[21.127,69.080],[21.066,69.214],[21.593,69.273],[22.300,68.855],[22.410,68.719],[23.324,68.648],[23.707,68.713],[23.854,68.805],[24.941,68.593],[25.086,68.639],[25.249,68.821],[25.575,68.887],[25.748,68.990],[25.767,69.282],[26.011,69.652],[26.525,69.915],[27.127,69.906],[27.591,70.042],[27.889,70.061],[28.411,69.822],[29.141,69.671],[29.333,69.472],[28.846,69.176],[28.832,69.118],[28.965,69.021],[28.414,68.904],[28.777,68.813],[28.470,68.488],[28.685,68.189],[29.343,68.061],[29.988,67.668],[29.941,67.547],[29.243,67.096],[29.066,66.891],[29.903,66.091],[30.087,65.786],[30.095,65.681],[29.715,65.624],[29.819,65.568],[29.728,65.473],[29.714,65.336],[29.608,65.248],[29.810,65.204],[29.826,65.145],[29.622,65.039],[29.604,64.968],[29.783,64.804],[30.110,64.732],[30.120,64.644],[29.986,64.524],[30.108,64.366],[30.487,64.236],[30.526,64.077],[30.210,63.803],[29.991,63.735],[31.180,63.208],[31.533,62.885],[31.186,62.481],[29.251,61.287],[28.407,60.896],[27.797,60.536],[27.462,60.464],[27.205,60.543],[26.534,60.412],[26.569,60.624],[26.377,60.424],[25.955,60.474],[26.035,60.341],[25.758,60.267],[25.656,60.333],[24.600,60.114],[24.445,60.021],[23.463,59.986],[23.021,59.816],[22.963,59.826],[23.198,60.021],[22.994,60.098],[22.911,60.209],[22.749,60.057],[22.462,60.029],[22.442,60.156],[22.589,60.228],[22.512,60.281],[22.584,60.380],[21.854,60.505],[21.805,60.594],[21.613,60.530],[21.410,60.636],[21.377,61.059],[21.513,61.281],[21.506,61.484],[21.565,61.484],[21.498,61.551],[21.605,61.591],[21.384,61.914],[21.255,61.989],[21.343,62.277],[21.165,62.414],[21.118,62.689],[21.457,62.95],[21.473,63.033],[21.650,63.039],[21.545,63.204],[21.895,63.210],[22.319,63.310],[22.243,63.437],[22.345,63.442],[22.318,63.504],[22.398,63.491],[22.527,63.579],[22.532,63.647],[22.756,63.683],[23.598,64.040],[23.652,64.134],[24.278,64.515],[24.557,64.801],[24.942,64.884],[25.288,64.860],[25.228,64.951],[25.372,65.009],[25.255,65.143],[25.347,65.479],[24.674,65.670],[24.581,65.757],[24.628,65.859],[24.404,65.780],[24.155,65.805]]],[[[24.997,65.038],[24.578,64.978],[24.576,65.042],[24.786,65.086],[24.997,65.038]]],[[[22.175,60.370],[22.415,60.303],[22.312,60.269],[22.360,60.165],[22.258,60.165],[22.077,60.286],[22.175,60.370]]],[[[21.994,60.336],[21.818,60.381],[21.827,60.469],[21.994,60.336]]],[[[21.733,60.106],[21.704,60.172],[21.864,60.201],[21.833,60.140],[21.733,60.106]]],[[[21.628,60.107],[21.486,60.126],[21.634,60.168],[21.628,60.107]]],[[[21.450,60.529],[21.3,60.479],[21.214,60.603],[21.268,60.638],[21.450,60.529]]],[[[21.228,63.222],[21.366,63.261],[21.421,63.245],[21.253,63.152],[21.083,63.277],[21.236,63.277],[21.228,63.222]]]]}},{"type":"Feature","properties":{"cc":"EE","name":"Estonia","role":"eu"},"geometry":{"type":"MultiPolygon","coordinates":[[[[27.326,57.525],[26.966,57.609],[26.462,57.544],[25.991,57.838],[25.282,58.048],[25.258,57.996],[25.111,58.063],[24.322,57.870],[24.529,58.354],[24.336,58.381],[24.114,58.266],[23.767,58.360],[23.509,58.658],[23.680,58.787],[23.503,58.789],[23.432,58.920],[23.515,58.999],[23.467,59.032],[23.494,59.195],[24.083,59.291],[24.053,59.372],[24.380,59.472],[25.443,59.521],[25.520,59.559],[25.509,59.639],[26.625,59.553],[26.974,59.450],[27.892,59.414],[28.012,59.484],[28.151,59.374],[27.897,59.277],[27.757,59.052],[27.434,58.787],[27.531,58.435],[27.502,58.221],[27.776,57.856],[27.542,57.799],[27.326,57.525]]],[[[23.343,58.550],[23.063,58.611],[23.165,58.678],[23.332,58.648],[23.343,58.550]]],[[[22.546,58.627],[22.964,58.605],[23.323,58.450],[23.127,58.435],[22.730,58.230],[22.371,58.217],[22.152,57.966],[21.996,57.931],[21.985,57.995],[22.187,58.154],[21.882,58.262],[21.854,58.301],[21.984,58.386],[21.862,58.497],[22.266,58.507],[22.328,58.580],[22.546,58.627]]],[[[22.841,58.777],[22.767,58.820],[22.661,58.709],[22.542,58.689],[22.472,58.712],[22.411,58.863],[22.056,58.943],[22.462,58.974],[22.649,59.087],[22.981,58.919],[23.008,58.833],[22.841,58.777]]]]}},{"type":"Feature","properties":{"cc":"DK","name":"Denmark","role":"eu"},"geometry":{"type":"MultiPolygon","coordinates":[[[[15.050,55.004],[14.684,55.102],[14.713,55.238],[14.765,55.296],[15.132,55.144],[15.050,55.004]]],[[[12.571,55.554],[12.520,55.614],[12.620,55.679],[12.665,55.596],[12.571,55.554]]],[[[12.571,55.684],[12.243,55.537],[12.215,55.466],[12.385,55.385],[12.413,55.286],[12.089,55.188],[12.050,54.815],[11.862,54.772],[11.740,54.915],[11.653,55.186],[11.286,55.204],[11.170,55.328],[11.189,55.465],[11.120,55.600],[10.978,55.721],[11.322,55.752],[11.474,55.943],[11.627,55.956],[11.695,55.907],[11.690,55.729],[11.819,55.697],[11.934,55.895],[11.866,55.968],[12.323,56.122],[12.608,56.033],[12.524,55.918],[12.571,55.684]]],[[[12.511,54.950],[12.184,54.892],[12.118,54.914],[12.274,55.064],[12.513,54.997],[12.511,54.950]]],[[[11.258,54.951],[11.739,54.807],[11.765,54.679],[11.457,54.628],[11.035,54.773],[11.058,54.940],[11.258,54.951]]],[[[11.011,57.229],[10.873,57.262],[11.174,57.322],[11.076,57.276],[11.011,57.229]]],[[[10.689,54.745],[10.621,54.851],[10.951,55.156],[10.765,54.799],[10.689,54.745]]],[[[9.725,54.825],[9.254,54.808],[8.670,54.903],[8.572,55.134],[8.669,55.155],[8.615,55.418],[8.132,55.599],[8.202,55.982],[8.121,56.139],[8.163,56.606],[8.671,56.495],[8.736,56.627],[8.888,56.735],[9.067,56.793],[9.196,56.701],[9.254,57.011],[9.110,57.043],[8.992,57.016],[8.771,56.725],[8.468,56.664],[8.268,56.754],[8.266,56.815],[8.618,57.111],[9.433,57.174],[9.962,57.580],[10.609,57.736],[10.444,57.562],[10.537,57.448],[10.524,57.243],[10.296,56.999],[10.282,56.620],[10.490,56.520],[10.845,56.521],[10.926,56.443],[10.856,56.295],[10.753,56.241],[10.538,56.200],[10.426,56.276],[10.318,56.212],[10.183,55.865],[9.903,55.842],[10.023,55.761],[9.591,55.493],[9.670,55.266],[9.453,55.039],[9.732,54.968],[9.725,54.825]]],[[[10.622,55.612],[10.819,55.321],[10.808,55.203],[10.623,55.052],[9.988,55.163],[9.858,55.357],[9.860,55.515],[10.286,55.610],[10.505,55.558],[10.622,55.612]]],[[[10.590,55.765],[10.526,55.783],[10.547,55.991],[10.661,55.877],[10.590,55.765]]],[[[10.504,54.860],[10.340,54.858],[10.199,54.962],[10.504,54.860]]],[[[10.061,54.886],[9.806,54.906],[9.771,55.059],[9.998,54.986],[10.061,54.886]]]]}},{"type":"Feature","properties":{"cc":"CZ","name":"Czechia","role":"eu"},"geometry":{"type":"Polygon","coordinates":[[[18.807,49.509],[18.596,49.491],[18.160,49.257],[18.085,49.065],[17.758,48.888],[17.135,48.841],[16.953,48.598],[16.883,48.703],[16.543,48.796],[16.367,48.738],[16.057,48.754],[15.825,48.864],[14.993,49.001],[14.922,48.771],[14.785,48.747],[14.691,48.599],[14.189,48.578],[14.049,48.602],[13.547,48.959],[13.440,48.955],[12.916,49.330],[12.681,49.414],[12.390,49.739],[12.512,49.895],[12.207,50.097],[12.089,50.301],[12.277,50.181],[12.549,50.393],[12.942,50.406],[13.016,50.490],[13.436,50.601],[13.556,50.704],[14.369,50.898],[14.283,51.029],[14.545,50.993],[14.613,50.855],[14.723,50.814],[14.982,50.886],[14.993,51.014],[15.258,50.958],[15.354,50.811],[15.730,50.739],[16.007,50.611],[16.359,50.621],[16.419,50.573],[16.379,50.516],[16.210,50.423],[16.639,50.102],[16.989,50.236],[16.880,50.427],[17.415,50.254],[17.702,50.307],[17.735,50.230],[17.589,50.157],[17.627,50.116],[17.831,49.983],[18.028,50.035],[18.562,49.879],[18.594,49.757],[18.806,49.613],[18.807,49.509]]]}},{"type":"Feature","properties":{"cc":"CY","name":"Cyprus","role":"eu"},"geometry":{"type":"Polygon","coordinates":[[[32.652,35.182],[32.919,35.087],[33.191,35.173],[33.383,35.162],[33.475,35.000],[33.866,35.093],[34.004,35.065],[34.050,34.988],[33.699,34.969],[33.414,34.750],[33.115,34.695],[33.007,34.569],[32.941,34.575],[32.867,34.661],[32.449,34.729],[32.317,34.953],[32.300,35.082],[32.390,35.049],[32.652,35.182]]]}},{"type":"Feature","properties":{"cc":"HR","name":"Croatia","role":"eu"},"geometry":{"type":"MultiPolygon","coordinates":[[[[13.517,45.481],[13.878,45.428],[13.992,45.509],[14.369,45.481],[14.568,45.657],[14.793,45.478],[15.339,45.467],[15.283,45.579],[15.353,45.659],[15.277,45.732],[15.652,45.862],[15.608,46.171],[16.066,46.371],[16.227,46.372],[16.236,46.483],[16.321,46.534],[16.748,46.416],[17.310,45.996],[17.807,45.790],[18.358,45.753],[18.533,45.796],[18.666,45.907],[18.905,45.931],[18.839,45.835],[18.947,45.655],[18.917,45.600],[19.064,45.514],[19.004,45.399],[19.400,45.189],[19.136,45.196],[19.062,45.137],[19.085,44.926],[18.941,44.865],[18.788,44.914],[18.662,45.077],[17.996,45.141],[17.812,45.078],[17.653,45.163],[17.502,45.120],[17.125,45.171],[16.918,45.276],[16.790,45.196],[16.530,45.216],[16.293,45.008],[16.028,45.189],[15.788,45.178],[15.736,44.765],[16.103,44.520],[16.300,44.124],[17.084,43.516],[17.273,43.445],[17.293,43.305],[17.650,43.006],[17.585,42.938],[16.903,43.392],[16.393,43.543],[15.985,43.519],[15.941,43.656],[15.499,43.908],[15.185,44.172],[15.122,44.256],[15.470,44.271],[14.981,44.602],[14.895,44.706],[14.854,45.081],[14.550,45.297],[14.312,45.337],[13.965,44.835],[13.860,44.837],[13.629,45.108],[13.517,45.481]]],[[[17.801,42.902],[18.517,42.432],[17.823,42.797],[17.045,43.014],[17.219,43.025],[17.723,42.850],[17.667,42.897],[17.801,42.902]]],[[[17.744,42.700],[17.344,42.790],[17.607,42.769],[17.744,42.700]]],[[[17.194,43.125],[16.679,43.123],[16.376,43.213],[17.194,43.125]]],[[[16.650,42.996],[17.093,42.964],[17.188,42.917],[16.850,42.895],[16.650,42.996]]],[[[16.627,43.268],[16.423,43.317],[16.448,43.387],[16.891,43.314],[16.627,43.268]]],[[[15.437,43.899],[15.374,43.914],[15.270,44.010],[15.371,43.973],[15.437,43.899]]],[[[15.162,44.309],[14.912,44.485],[14.741,44.697],[15.239,44.350],[15.162,44.309]]],[[[15.231,44.062],[15.121,44.093],[15.065,44.157],[15.231,44.062]]],[[[15.203,43.907],[15.135,43.907],[14.865,44.167],[14.952,44.117],[15.203,43.907]]],[[[14.856,44.714],[14.678,44.769],[14.672,44.824],[14.754,44.844],[14.856,44.714]]],[[[14.687,44.955],[14.437,45.098],[14.571,45.224],[14.810,44.977],[14.687,44.955]]],[[[14.480,44.621],[14.312,44.900],[14.340,45.019],[14.285,45.144],[14.331,45.164],[14.467,44.970],[14.480,44.621]]]]}},{"type":"Feature","properties":{"cc":"BG","name":"Bulgaria","role":"eu"},"geometry":{"type":"Polygon","coordinates":[[[28.014,41.969],[27.534,41.920],[27.244,42.093],[26.615,41.964],[26.320,41.716],[26.107,41.725],[26.066,41.673],[26.135,41.385],[25.923,41.311],[25.251,41.243],[24.993,41.364],[24.773,41.356],[24.487,41.555],[24.056,41.527],[24.011,41.460],[23.635,41.386],[22.916,41.336],[23.003,41.739],[22.836,41.993],[22.582,42.104],[22.344,42.313],[22.523,42.440],[22.436,42.629],[22.466,42.842],[22.706,42.883],[22.976,43.187],[22.499,43.518],[22.369,43.781],[22.399,43.969],[22.597,44.075],[22.626,44.194],[22.705,44.237],[23.028,44.077],[22.868,43.947],[22.919,43.834],[23.224,43.873],[25.497,43.670],[25.818,43.766],[26.215,44.007],[27.086,44.167],[27.425,44.020],[27.738,43.956],[27.884,43.987],[28.05,43.822],[28.221,43.772],[28.585,43.742],[28.561,43.501],[28.465,43.389],[28.133,43.395],[27.928,43.186],[27.888,42.749],[27.753,42.706],[27.484,42.468],[27.708,42.349],[28.014,41.969]]]}},{"type":"Feature","properties":{"cc":"BA","name":"Bosnia and Herz.","role":"ctx"},"geometry":{"type":"Polygon","coordinates":[[[19.356,44.858],[19.151,44.527],[19.118,44.359],[19.583,44.043],[19.549,43.987],[19.245,43.965],[19.488,43.703],[19.479,43.595],[18.950,43.526],[19.026,43.292],[18.851,43.346],[18.674,43.230],[18.623,43.027],[18.443,42.968],[18.545,42.641],[18.436,42.559],[17.801,42.902],[17.585,42.938],[17.650,43.006],[17.293,43.305],[17.273,43.445],[17.084,43.516],[16.300,44.124],[16.103,44.520],[15.736,44.765],[15.822,45.202],[16.028,45.189],[16.293,45.008],[16.530,45.216],[16.790,45.196],[16.918,45.276],[17.125,45.171],[17.502,45.120],[17.653,45.163],[17.812,45.078],[17.996,45.141],[18.662,45.077],[18.836,44.883],[19.236,44.914],[19.356,44.858]]]}},{"type":"Feature","properties":{"cc":"BE","name":"Belgium","role":"eu"},"geometry":{"type":"Polygon","coordinates":[[[4.226,51.386],[4.404,51.367],[4.384,51.427],[4.503,51.474],[4.633,51.421],[4.755,51.491],[4.848,51.403],[5.030,51.469],[5.214,51.278],[5.476,51.285],[5.827,51.125],[5.639,50.843],[5.747,50.759],[5.993,50.750],[6.235,50.596],[6.178,50.522],[6.340,50.451],[6.364,50.316],[6.175,50.232],[6.116,50.120],[5.976,50.167],[5.744,49.919],[5.725,49.808],[5.880,49.644],[5.815,49.553],[5.507,49.510],[5.278,49.677],[4.867,49.788],[4.790,49.959],[4.860,50.135],[4.818,50.153],[4.545,49.960],[4.149,49.971],[4.174,50.246],[3.949,50.335],[3.689,50.306],[3.595,50.477],[3.273,50.531],[3.234,50.662],[3.106,50.779],[2.839,50.711],[2.759,50.750],[2.596,50.875],[2.524,51.097],[3.350,51.377],[3.432,51.245],[3.580,51.286],[3.902,51.207],[4.172,51.307],[4.226,51.386]]]}},{"type":"Feature","properties":{"cc":"BY","name":"Belarus","role":"ctx"},"geometry":{"type":"Polygon","coordinates":[[[31.763,52.101],[31.079,52.076],[30.755,51.895],[30.533,51.596],[30.632,51.355],[30.544,51.265],[30.333,51.325],[30.160,51.477],[29.346,51.382],[29.102,51.627],[28.731,51.433],[28.599,51.542],[28.183,51.607],[27.858,51.592],[27.7,51.477],[27.689,51.572],[27.296,51.597],[27.141,51.752],[25.785,51.923],[24.361,51.867],[23.978,51.591],[23.706,51.641],[23.608,51.610],[23.605,51.517],[23.544,51.710],[23.625,51.809],[23.652,52.040],[23.175,52.286],[23.410,52.516],[23.844,52.664],[23.915,52.770],[23.859,53.112],[23.484,53.939],[24.191,53.950],[24.317,53.892],[24.768,53.974],[24.869,54.145],[25.046,54.133],[25.461,54.292],[25.510,54.159],[25.749,54.156],[25.748,54.259],[25.547,54.331],[25.724,54.564],[25.722,54.717],[25.859,54.919],[26.175,55.003],[26.291,55.139],[26.601,55.130],[26.775,55.273],[26.457,55.342],[26.593,55.667],[27.052,55.830],[27.576,55.798],[27.642,55.911],[27.896,56.076],[28.117,56.145],[28.284,56.055],[28.563,56.091],[28.794,55.942],[29.031,56.021],[29.375,55.938],[29.353,55.784],[29.482,55.684],[29.937,55.845],[30.233,55.845],[30.906,55.570],[30.900,55.397],[30.810,55.306],[30.977,55.050],[30.829,54.914],[30.798,54.783],[31.152,54.625],[31.074,54.491],[31.184,54.452],[31.403,54.195],[31.825,54.030],[31.754,53.810],[32.200,53.781],[32.450,53.692],[32.469,53.546],[32.706,53.419],[32.704,53.336],[32.141,53.091],[31.849,53.106],[31.668,53.200],[31.388,53.184],[31.258,53.016],[31.564,52.759],[31.519,52.698],[31.615,52.546],[31.577,52.312],[31.763,52.101]]]}},{"type":"Feature","properties":{"cc":"AT","name":"Austria","role":"eu"},"geometry":{"type":"Polygon","coordinates":[[[9.527,47.270],[9.625,47.467],[9.524,47.524],[9.748,47.575],[10.034,47.473],[10.066,47.393],[10.200,47.363],[10.183,47.278],[10.240,47.284],[10.369,47.366],[10.439,47.551],[10.873,47.520],[11.041,47.393],[11.716,47.583],[12.185,47.619],[12.209,47.718],[12.482,47.637],[12.685,47.669],[12.771,47.639],[12.809,47.542],[13.014,47.478],[13.054,47.655],[12.897,47.721],[12.953,47.890],[12.760,48.075],[12.814,48.160],[13.374,48.361],[13.486,48.581],[13.723,48.542],[13.785,48.587],[13.814,48.766],[14.049,48.602],[14.691,48.599],[14.785,48.747],[14.922,48.771],[14.993,49.001],[15.825,48.864],[16.057,48.754],[16.367,48.738],[16.543,48.796],[16.883,48.703],[16.953,48.598],[16.865,48.386],[17.147,48.005],[17.030,47.837],[17.066,47.707],[16.785,47.678],[16.590,47.750],[16.421,47.674],[16.639,47.608],[16.676,47.536],[16.623,47.447],[16.442,47.399],[16.461,47.022],[16.037,46.844],[15.957,46.677],[15.766,46.711],[15.439,46.629],[14.893,46.605],[14.549,46.399],[12.479,46.672],[12.154,46.935],[12.169,47.082],[11.775,46.986],[11.244,46.975],[10.927,46.769],[10.452,46.864],[10.349,46.984],[10.133,46.851],[9.877,46.937],[9.845,47.007],[9.580,47.057],[9.610,47.107],[9.527,47.270]]]}},{"type":"Feature","properties":{"cc":"AD","name":"Andorra","role":"ctx"},"geometry":{"type":"Polygon","coordinates":[[[1.740,42.556],[1.448,42.437],[1.428,42.595],[1.501,42.642],[1.709,42.604],[1.740,42.556]]]}},{"type":"Feature","properties":{"cc":"AL","name":"Albania","role":"ctx"},"geometry":{"type":"Polygon","coordinates":[[[19.342,41.869],[19.361,42.069],[19.280,42.172],[19.703,42.647],[19.788,42.476],[20.063,42.547],[20.240,42.338],[20.522,42.171],[20.581,41.917],[20.516,41.574],[20.448,41.521],[20.488,41.272],[20.709,40.928],[20.933,40.903],[21.030,40.622],[20.950,40.494],[20.806,40.445],[20.657,40.117],[20.311,39.979],[20.382,39.802],[20.306,39.796],[20.206,39.653],[20.001,39.709],[19.851,40.043],[19.484,40.209],[19.322,40.407],[19.459,40.405],[19.337,40.663],[19.461,40.933],[19.440,41.424],[19.575,41.640],[19.577,41.787],[19.342,41.869]]]}}]}